{
  "type": "FeatureCollection",
  "features": [
    {
      "type": "Feature",
      "geometry": {
        "type": "LineString",
        "coordinates": [
          [
            13479123.2498,
            1661055.7276
          ],
          [
            13479123.2498,
            1661015.7276
          ],
          [
            13479113.2498,
            1661005.7276
          ],
          [
            13479113.2498,
            1660905.7276
          ],
          [
            13479103.2498,
            1660895.7276
          ],
          [
            13479103.2498,
            1660765.7276
          ],
          [
            13479093.2498,
            1660755.7276
          ],
          [
            13479093.2498,
            1660625.7276
          ],
          [
            13479083.2498,
            1660615.7276
          ],
          [
            13479083.2498,
            1660595.7276
          ],
          [
            13479073.2498,
            1660585.7276
          ],
          [
            13479073.2498,
            1660575.7276
          ],
          [
            13479063.2498,
            1660565.7276
          ],
          [
            13479063.2498,
            1660555.7276
          ],
          [
            13479053.2498,
            1660545.7276
          ],
          [
            13479053.2498,
            1660535.7276
          ],
          [
            13479033.2498,
            1660515.7276
          ],
          [
            13479033.2498,
            1660505.7276
          ],
          [
            13479013.2498,
            1660485.7276
          ],
          [
            13479013.2498,
            1660475.7276
          ],
          [
            13478983.2498,
            1660445.7276
          ],
          [
            13478983.2498,
            1660435.7276
          ],
          [
            13478963.2498,
            1660415.7276
          ],
          [
            13478963.2498,
            1660405.7276
          ],
          [
            13478943.2498,
            1660385.7276
          ],
          [
            13478943.2498,
            1660375.7276
          ],
          [
            13478923.2498,
            1660355.7276
          ],
          [
            13478923.2498,
            1660345.7276
          ],
          [
            13478903.2498,
            1660325.7276
          ],
          [
            13478903.2498,
            1660315.7276
          ],
          [
            13478893.2498,
            1660305.7276
          ],
          [
            13478893.2498,
            1660295.7276
          ],
          [
            13478873.2498,
            1660275.7276
          ],
          [
            13478873.2498,
            1660265.7276
          ],
          [
            13478853.2498,
            1660245.7276
          ],
          [
            13478853.2498,
            1660235.7276
          ],
          [
            13478833.2498,
            1660215.7276
          ],
          [
            13478833.2498,
            1660205.7276
          ],
          [
            13478713.2498,
            1660085.7276
          ],
          [
            13478713.2498,
            1660075.7276
          ],
          [
            13478593.2498,
            1659955.7276
          ],
          [
            13478573.2498,
            1659955.7276
          ],
          [
            13478563.2498,
            1659945.7276
          ],
          [
            13478543.2498,
            1659945.7276
          ],
          [
            13478533.2498,
            1659935.7276
          ],
          [
            13478513.2498,
            1659935.7276
          ],
          [
            13478503.2498,
            1659925.7276
          ],
          [
            13478473.2498,
            1659925.7276
          ],
          [
            13478463.2498,
            1659915.7276
          ],
          [
            13478443.2498,
            1659915.7276
          ],
          [
            13478433.2498,
            1659905.7276
          ],
          [
            13478413.2498,
            1659905.7276
          ],
          [
            13478403.2498,
            1659895.7276
          ],
          [
            13478393.2498,
            1659895.7276
          ],
          [
            13478333.2498,
            1659835.7276
          ],
          [
            13478333.2498,
            1659815.7276
          ],
          [
            13478323.2498,
            1659805.7276
          ],
          [
            13478323.2498,
            1659615.7276
          ],
          [
            13478313.2498,
            1659605.7276
          ],
          [
            13478313.2498,
            1659535.7276
          ],
          [
            13478263.2498,
            1659485.7276
          ],
          [
            13478243.2498,
            1659485.7276
          ],
          [
            13478233.2498,
            1659475.7276
          ],
          [
            13478203.2498,
            1659475.7276
          ],
          [
            13478193.2498,
            1659465.7276
          ],
          [
            13478173.2498,
            1659465.7276
          ],
          [
            13478163.2498,
            1659455.7276
          ],
          [
            13478153.2498,
            1659455.7276
          ],
          [
            13478143.2498,
            1659445.7276
          ],
          [
            13478133.2498,
            1659445.7276
          ],
          [
            13478063.2498,
            1659375.7276
          ],
          [
            13478063.2498,
            1659365.7276
          ],
          [
            13478043.2498,
            1659345.7276
          ],
          [
            13478043.2498,
            1659335.7276
          ],
          [
            13478013.2498,
            1659305.7276
          ],
          [
            13478013.2498,
            1659295.7276
          ],
          [
            13477993.2498,
            1659275.7276
          ],
          [
            13477993.2498,
            1659265.7276
          ],
          [
            13477963.2498,
            1659235.7276
          ],
          [
            13477963.2498,
            1659225.7276
          ],
          [
            13477773.2498,
            1659035.7276
          ],
          [
            13477753.2498,
            1659035.7276
          ],
          [
            13477733.2498,
            1659015.7276
          ],
          [
            13477723.2498,
            1659015.7276
          ],
          [
            13477703.2498,
            1658995.7276
          ],
          [
            13477693.2498,
            1658995.7276
          ],
          [
            13477683.2498,
            1658985.7276
          ],
          [
            13477663.2498,
            1658985.7276
          ],
          [
            13477643.2498,
            1658965.7276
          ],
          [
            13477633.2498,
            1658965.7276
          ],
          [
            13477623.2498,
            1658955.7276
          ],
          [
            13477613.2498,
            1658955.7276
          ],
          [
            13477403.2498,
            1658745.7276
          ],
          [
            13477393.2498,
            1658745.7276
          ],
          [
            13477373.2498,
            1658725.7276
          ],
          [
            13476513.2498,
            1658725.7276
          ],
          [
            13476503.2498,
            1658715.7276
          ],
          [
            13476483.2498,
            1658715.7276
          ],
          [
            13476473.2498,
            1658705.7276
          ],
          [
            13476473.2498,
            1655855.7276
          ],
          [
            13476503.2498,
            1655825.7276
          ],
          [
            13476503.2498,
            1655815.7276
          ],
          [
            13476543.2498,
            1655775.7276
          ],
          [
            13476543.2498,
            1655765.7276
          ],
          [
            13476583.2498,
            1655725.7276
          ],
          [
            13476583.2498,
            1655715.7276
          ],
          [
            13476623.2498,
            1655675.7276
          ],
          [
            13476623.2498,
            1655665.7276
          ],
          [
            13476693.2498,
            1655595.7276
          ],
          [
            13476693.2498,
            1655585.7276
          ],
          [
            13476723.2498,
            1655555.7276
          ],
          [
            13476723.2498,
            1655545.7276
          ],
          [
            13476773.2498,
            1655495.7276
          ],
          [
            13476773.2498,
            1655485.7276
          ],
          [
            13476853.2498,
            1655405.7276
          ],
          [
            13476873.2498,
            1655405.7276
          ],
          [
            13476883.2498,
            1655395.7276
          ],
          [
            13476913.2498,
            1655395.7276
          ],
          [
            13476923.2498,
            1655385.7276
          ],
          [
            13477363.2498,
            1655385.7276
          ],
          [
            13477373.2498,
            1655375.7276
          ],
          [
            13477373.2498,
            1655275.7276
          ],
          [
            13477363.2498,
            1655265.7276
          ],
          [
            13477363.2498,
            1655235.7276
          ],
          [
            13477353.2498,
            1655225.7276
          ],
          [
            13477353.2498,
            1655205.7276
          ],
          [
            13477343.2498,
            1655195.7276
          ],
          [
            13477343.2498,
            1655175.7276
          ],
          [
            13477333.2498,
            1655165.7276
          ],
          [
            13477333.2498,
            1655145.7276
          ],
          [
            13477323.2498,
            1655135.7276
          ],
          [
            13477323.2498,
            1655115.7276
          ],
          [
            13477313.2498,
            1655105.7276
          ],
          [
            13477313.2498,
            1655085.7276
          ],
          [
            13477303.2498,
            1655075.7276
          ],
          [
            13477303.2498,
            1655055.7276
          ],
          [
            13477293.2498,
            1655045.7276
          ],
          [
            13477293.2498,
            1655035.7276
          ],
          [
            13477283.2498,
            1655025.7276
          ],
          [
            13477283.2498,
            1655005.7276
          ],
          [
            13477273.2498,
            1654995.7276
          ],
          [
            13477273.2498,
            1654975.7276
          ],
          [
            13477263.2498,
            1654965.7276
          ],
          [
            13477263.2498,
            1654945.7276
          ],
          [
            13477253.2498,
            1654935.7276
          ],
          [
            13477253.2498,
            1654915.7276
          ],
          [
            13477243.2498,
            1654905.7276
          ],
          [
            13477243.2498,
            1654885.7276
          ],
          [
            13477233.2498,
            1654875.7276
          ],
          [
            13477233.2498,
            1654855.7276
          ],
          [
            13477223.2498,
            1654845.7276
          ],
          [
            13477223.2498,
            1654825.7276
          ],
          [
            13477213.2498,
            1654815.7276
          ],
          [
            13477213.2498,
            1654785.7276
          ],
          [
            13477203.2498,
            1654775.7276
          ],
          [
            13477203.2498,
            1654725.7276
          ],
          [
            13477193.2498,
            1654715.7276
          ],
          [
            13477193.2498,
            1654675.7276
          ],
          [
            13477183.2498,
            1654665.7276
          ],
          [
            13477183.2498,
            1653945.7276
          ],
          [
            13477183.2498,
            1653915.7276
          ],
          [
            13477173.2498,
            1653905.7276
          ],
          [
            13477203.2498,
            1653905.7276
          ],
          [
            13477243.2498,
            1653865.7276
          ],
          [
            13477343.2498,
            1653865.7276
          ],
          [
            13477353.2498,
            1653855.7276
          ],
          [
            13477423.2498,
            1653855.7276
          ],
          [
            13477433.2498,
            1653865.7276
          ],
          [
            13477473.2498,
            1653865.7276
          ],
          [
            13477483.2498,
            1653855.7276
          ],
          [
            13477473.2498,
            1653845.7276
          ],
          [
            13477473.2498,
            1653315.7276
          ],
          [
            13477463.2498,
            1653305.7276
          ],
          [
            13477463.2498,
            1653295.7276
          ],
          [
            13477433.2498,
            1653265.7276
          ],
          [
            13477433.2498,
            1653225.7276
          ],
          [
            13477423.2498,
            1653215.7276
          ],
          [
            13477423.2498,
            1653205.7276
          ],
          [
            13477413.2498,
            1653195.7276
          ],
          [
            13477413.2498,
            1653095.7276
          ],
          [
            13477423.2498,
            1653085.7276
          ],
          [
            13477433.2498,
            1653075.7276
          ],
          [
            13477433.2498,
            1652995.7276
          ],
          [
            13477443.2498,
            1652985.7276
          ],
          [
            13477443.2498,
            1652875.7276
          ],
          [
            13477433.2498,
            1652865.7276
          ],
          [
            13477433.2498,
            1652815.7276
          ],
          [
            13477423.2498,
            1652805.7276
          ],
          [
            13477423.2498,
            1652765.7276
          ],
          [
            13477413.2498,
            1652755.7276
          ],
          [
            13477413.2498,
            1652725.7276
          ],
          [
            13477403.2498,
            1652715.7276
          ],
          [
            13477403.2498,
            1652685.7276
          ],
          [
            13477413.2498,
            1652675.7276
          ],
          [
            13477413.2498,
            1652575.7276
          ],
          [
            13477403.2498,
            1652565.7276
          ],
          [
            13477403.2498,
            1652465.7276
          ],
          [
            13477393.2498,
            1652455.7276
          ],
          [
            13477393.2498,
            1652435.7276
          ],
          [
            13477383.2498,
            1652425.7276
          ],
          [
            13477383.2498,
            1652395.7276
          ],
          [
            13477373.2498,
            1652385.7276
          ],
          [
            13477373.2498,
            1652365.7276
          ],
          [
            13477363.2498,
            1652355.7276
          ],
          [
            13477363.2498,
            1652305.7276
          ],
          [
            13477373.2498,
            1652295.7276
          ],
          [
            13477373.2498,
            1652035.7276
          ],
          [
            13477363.2498,
            1652025.7276
          ],
          [
            13477363.2498,
            1651755.7276
          ],
          [
            13477353.2498,
            1651745.7276
          ],
          [
            13477353.2498,
            1651605.7276
          ],
          [
            13477343.2498,
            1651595.7276
          ],
          [
            13477343.2498,
            1651565.7276
          ],
          [
            13477333.2498,
            1651555.7276
          ],
          [
            13477333.2498,
            1651525.7276
          ],
          [
            13477323.2498,
            1651515.7276
          ],
          [
            13477323.2498,
            1651495.7276
          ],
          [
            13477313.2498,
            1651485.7276
          ],
          [
            13477313.2498,
            1651455.7276
          ],
          [
            13477303.2498,
            1651445.7276
          ],
          [
            13477303.2498,
            1651435.7276
          ],
          [
            13477293.2498,
            1651425.7276
          ],
          [
            13477293.2498,
            1651185.7276
          ],
          [
            13477303.2498,
            1651175.7276
          ],
          [
            13477303.2498,
            1651085.7276
          ],
          [
            13477303.2498,
            1651025.7276
          ],
          [
            13477313.2498,
            1651015.7276
          ],
          [
            13477313.2498,
            1650985.7276
          ],
          [
            13477323.2498,
            1650975.7276
          ],
          [
            13477323.2498,
            1650965.7276
          ],
          [
            13477333.2498,
            1650955.7276
          ],
          [
            13477333.2498,
            1650945.7276
          ],
          [
            13477343.2498,
            1650935.7276
          ],
          [
            13477343.2498,
            1650925.7276
          ],
          [
            13477353.2498,
            1650915.7276
          ],
          [
            13477353.2498,
            1650905.7276
          ],
          [
            13477363.2498,
            1650895.7276
          ],
          [
            13477363.2498,
            1650885.7276
          ],
          [
            13477373.2498,
            1650875.7276
          ],
          [
            13477373.2498,
            1650865.7276
          ],
          [
            13477383.2498,
            1650855.7276
          ],
          [
            13477383.2498,
            1650845.7276
          ],
          [
            13477393.2498,
            1650835.7276
          ],
          [
            13477393.2498,
            1650825.7276
          ],
          [
            13477403.2498,
            1650815.7276
          ],
          [
            13477403.2498,
            1650805.7276
          ],
          [
            13477413.2498,
            1650795.7276
          ],
          [
            13477413.2498,
            1650785.7276
          ],
          [
            13477423.2498,
            1650775.7276
          ],
          [
            13477423.2498,
            1650765.7276
          ],
          [
            13477433.2498,
            1650755.7276
          ],
          [
            13477433.2498,
            1650745.7276
          ],
          [
            13477443.2498,
            1650735.7276
          ],
          [
            13477443.2498,
            1650725.7276
          ],
          [
            13477453.2498,
            1650715.7276
          ],
          [
            13477453.2498,
            1650705.7276
          ],
          [
            13477453.2498,
            1650675.7276
          ],
          [
            13477333.2498,
            1650555.7276
          ],
          [
            13477303.2498,
            1650525.7276
          ],
          [
            13477223.2498,
            1650525.7276
          ],
          [
            13477263.2498,
            1650485.7276
          ],
          [
            13477163.2498,
            1650385.7276
          ],
          [
            13477153.2498,
            1650385.7276
          ],
          [
            13477133.2498,
            1650365.7276
          ],
          [
            13477123.2498,
            1650365.7276
          ],
          [
            13477103.2498,
            1650345.7276
          ],
          [
            13477093.2498,
            1650345.7276
          ],
          [
            13477073.2498,
            1650325.7276
          ],
          [
            13477063.2498,
            1650325.7276
          ],
          [
            13477053.2498,
            1650315.7276
          ],
          [
            13477043.2498,
            1650315.7276
          ],
          [
            13477013.2498,
            1650285.7276
          ],
          [
            13477003.2498,
            1650285.7276
          ],
          [
            13476993.2498,
            1650275.7276
          ],
          [
            13476983.2498,
            1650275.7276
          ],
          [
            13476953.2498,
            1650245.7276
          ],
          [
            13476943.2498,
            1650245.7276
          ],
          [
            13476923.2498,
            1650225.7276
          ],
          [
            13476913.2498,
            1650225.7276
          ],
          [
            13476893.2498,
            1650205.7276
          ],
          [
            13476883.2498,
            1650205.7276
          ],
          [
            13476853.2498,
            1650175.7276
          ],
          [
            13476843.2498,
            1650175.7276
          ],
          [
            13476823.2498,
            1650155.7276
          ],
          [
            13476813.2498,
            1650155.7276
          ],
          [
            13476793.2498,
            1650135.7276
          ],
          [
            13476783.2498,
            1650135.7276
          ],
          [
            13476763.2498,
            1650115.7276
          ],
          [
            13476753.2498,
            1650115.7276
          ],
          [
            13476733.2498,
            1650095.7276
          ],
          [
            13476723.2498,
            1650095.7276
          ],
          [
            13476703.2498,
            1650075.7276
          ],
          [
            13476693.2498,
            1650075.7276
          ],
          [
            13476673.2498,
            1650055.7276
          ],
          [
            13476663.2498,
            1650055.7276
          ],
          [
            13476643.2498,
            1650035.7276
          ],
          [
            13476633.2498,
            1650035.7276
          ],
          [
            13476603.2498,
            1650005.7276
          ],
          [
            13476593.2498,
            1650005.7276
          ],
          [
            13476573.2498,
            1649985.7276
          ],
          [
            13476563.2498,
            1649985.7276
          ],
          [
            13476543.2498,
            1649965.7276
          ],
          [
            13476533.2498,
            1649965.7276
          ],
          [
            13476513.2498,
            1649945.7276
          ],
          [
            13476503.2498,
            1649945.7276
          ],
          [
            13476483.2498,
            1649925.7276
          ],
          [
            13476473.2498,
            1649925.7276
          ],
          [
            13476443.2498,
            1649895.7276
          ],
          [
            13476433.2498,
            1649895.7276
          ],
          [
            13476413.2498,
            1649875.7276
          ],
          [
            13476403.2498,
            1649875.7276
          ],
          [
            13476373.2498,
            1649845.7276
          ],
          [
            13476363.2498,
            1649845.7276
          ],
          [
            13476343.2498,
            1649825.7276
          ],
          [
            13476333.2498,
            1649825.7276
          ],
          [
            13476323.2498,
            1649815.7276
          ],
          [
            13476313.2498,
            1649815.7276
          ],
          [
            13476293.2498,
            1649795.7276
          ],
          [
            13476283.2498,
            1649795.7276
          ],
          [
            13476253.2498,
            1649765.7276
          ],
          [
            13476243.2498,
            1649765.7276
          ],
          [
            13476223.2498,
            1649745.7276
          ],
          [
            13476213.2498,
            1649745.7276
          ],
          [
            13476193.2498,
            1649725.7276
          ],
          [
            13476183.2498,
            1649725.7276
          ],
          [
            13476143.2498,
            1649685.7276
          ],
          [
            13476103.2498,
            1649725.7276
          ],
          [
            13476093.2498,
            1649715.7276
          ],
          [
            13476083.2498,
            1649715.7276
          ],
          [
            13476063.2498,
            1649695.7276
          ],
          [
            13476053.2498,
            1649695.7276
          ],
          [
            13476033.2498,
            1649675.7276
          ],
          [
            13476023.2498,
            1649675.7276
          ],
          [
            13476013.2498,
            1649665.7276
          ],
          [
            13476003.2498,
            1649665.7276
          ],
          [
            13475983.2498,
            1649645.7276
          ],
          [
            13475973.2498,
            1649645.7276
          ],
          [
            13475943.2498,
            1649615.7276
          ],
          [
            13475933.2498,
            1649615.7276
          ],
          [
            13475923.2498,
            1649605.7276
          ],
          [
            13475913.2498,
            1649605.7276
          ],
          [
            13475893.2498,
            1649585.7276
          ],
          [
            13475883.2498,
            1649585.7276
          ],
          [
            13475873.2498,
            1649575.7276
          ],
          [
            13475863.2498,
            1649575.7276
          ],
          [
            13475833.2498,
            1649545.7276
          ],
          [
            13475823.2498,
            1649545.7276
          ],
          [
            13475803.2498,
            1649525.7276
          ],
          [
            13475793.2498,
            1649525.7276
          ],
          [
            13475783.2498,
            1649515.7276
          ],
          [
            13475773.2498,
            1649515.7276
          ],
          [
            13475743.2498,
            1649485.7276
          ],
          [
            13475733.2498,
            1649485.7276
          ],
          [
            13475723.2498,
            1649475.7276
          ],
          [
            13475713.2498,
            1649475.7276
          ],
          [
            13475673.2498,
            1649435.7276
          ],
          [
            13475663.2498,
            1649435.7276
          ],
          [
            13475633.2498,
            1649405.7276
          ],
          [
            13475623.2498,
            1649405.7276
          ],
          [
            13475593.2498,
            1649375.7276
          ],
          [
            13475583.2498,
            1649375.7276
          ],
          [
            13475523.2498,
            1649315.7276
          ],
          [
            13475513.2498,
            1649315.7276
          ],
          [
            13475493.2498,
            1649295.7276
          ],
          [
            13475483.2498,
            1649295.7276
          ],
          [
            13475473.2498,
            1649285.7276
          ],
          [
            13475463.2498,
            1649285.7276
          ],
          [
            13475453.2498,
            1649275.7276
          ],
          [
            13475453.2498,
            1649265.7276
          ],
          [
            13475463.2498,
            1649255.7276
          ],
          [
            13475423.2498,
            1649215.7276
          ],
          [
            13475423.2498,
            1649135.7276
          ],
          [
            13475433.2498,
            1649125.7276
          ],
          [
            13475433.2498,
            1649105.7276
          ],
          [
            13475443.2498,
            1649095.7276
          ],
          [
            13475443.2498,
            1649055.7276
          ],
          [
            13475453.2498,
            1649045.7276
          ],
          [
            13475453.2498,
            1648965.7276
          ],
          [
            13475443.2498,
            1648955.7276
          ],
          [
            13475443.2498,
            1648905.7276
          ],
          [
            13475433.2498,
            1648895.7276
          ],
          [
            13475433.2498,
            1648885.7276
          ],
          [
            13475423.2498,
            1648875.7276
          ],
          [
            13475423.2498,
            1648865.7276
          ],
          [
            13475413.2498,
            1648855.7276
          ],
          [
            13475413.2498,
            1648845.7276
          ],
          [
            13475393.2498,
            1648825.7276
          ],
          [
            13475393.2498,
            1648815.7276
          ],
          [
            13475353.2498,
            1648775.7276
          ],
          [
            13475353.2498,
            1648735.7276
          ],
          [
            13475363.2498,
            1648725.7276
          ],
          [
            13475363.2498,
            1648715.7276
          ],
          [
            13475373.2498,
            1648705.7276
          ],
          [
            13475373.2498,
            1648695.7276
          ],
          [
            13475393.2498,
            1648675.7276
          ],
          [
            13475393.2498,
            1648665.7276
          ],
          [
            13475413.2498,
            1648645.7276
          ],
          [
            13475413.2498,
            1648635.7276
          ],
          [
            13475433.2498,
            1648615.7276
          ],
          [
            13475433.2498,
            1648605.7276
          ],
          [
            13475443.2498,
            1648595.7276
          ],
          [
            13475443.2498,
            1648585.7276
          ],
          [
            13475463.2498,
            1648565.7276
          ],
          [
            13475463.2498,
            1648555.7276
          ],
          [
            13475473.2498,
            1648545.7276
          ],
          [
            13475473.2498,
            1648535.7276
          ],
          [
            13475493.2498,
            1648515.7276
          ],
          [
            13475493.2498,
            1648505.7276
          ],
          [
            13475513.2498,
            1648485.7276
          ],
          [
            13475513.2498,
            1648475.7276
          ],
          [
            13475533.2498,
            1648455.7276
          ],
          [
            13475533.2498,
            1648445.7276
          ],
          [
            13475543.2498,
            1648435.7276
          ],
          [
            13475543.2498,
            1648425.7276
          ],
          [
            13475563.2498,
            1648405.7276
          ],
          [
            13475563.2498,
            1648395.7276
          ],
          [
            13475573.2498,
            1648385.7276
          ],
          [
            13475573.2498,
            1648375.7276
          ],
          [
            13475593.2498,
            1648355.7276
          ],
          [
            13475593.2498,
            1648345.7276
          ],
          [
            13475603.2498,
            1648335.7276
          ],
          [
            13475603.2498,
            1648325.7276
          ],
          [
            13475613.2498,
            1648315.7276
          ],
          [
            13475613.2498,
            1648305.7276
          ],
          [
            13475623.2498,
            1648295.7276
          ],
          [
            13475623.2498,
            1648285.7276
          ],
          [
            13475633.2498,
            1648275.7276
          ],
          [
            13475633.2498,
            1648265.7276
          ],
          [
            13475643.2498,
            1648255.7276
          ],
          [
            13475643.2498,
            1648245.7276
          ],
          [
            13475653.2498,
            1648235.7276
          ],
          [
            13475653.2498,
            1648215.7276
          ],
          [
            13475663.2498,
            1648205.7276
          ],
          [
            13475663.2498,
            1648195.7276
          ],
          [
            13475673.2498,
            1648185.7276
          ],
          [
            13475673.2498,
            1648165.7276
          ],
          [
            13475683.2498,
            1648155.7276
          ],
          [
            13475683.2498,
            1648135.7276
          ],
          [
            13475693.2498,
            1648125.7276
          ],
          [
            13475693.2498,
            1648105.7276
          ],
          [
            13475703.2498,
            1648095.7276
          ],
          [
            13475703.2498,
            1648075.7276
          ],
          [
            13475713.2498,
            1648065.7276
          ],
          [
            13475713.2498,
            1648045.7276
          ],
          [
            13475723.2498,
            1648035.7276
          ],
          [
            13475723.2498,
            1648005.7276
          ],
          [
            13475733.2498,
            1647995.7276
          ],
          [
            13475733.2498,
            1647955.7276
          ],
          [
            13475743.2498,
            1647945.7276
          ],
          [
            13475743.2498,
            1647905.7276
          ],
          [
            13475753.2498,
            1647895.7276
          ],
          [
            13475753.2498,
            1647855.7276
          ],
          [
            13475763.2498,
            1647845.7276
          ],
          [
            13475763.2498,
            1647775.7276
          ],
          [
            13475763.2498,
            1647485.7276
          ],
          [
            13475753.2498,
            1647475.7276
          ],
          [
            13475753.2498,
            1647415.7276
          ],
          [
            13475743.2498,
            1647405.7276
          ],
          [
            13475743.2498,
            1647345.7276
          ],
          [
            13475743.2498,
            1647305.7276
          ],
          [
            13475753.2498,
            1647295.7276
          ],
          [
            13475783.2498,
            1647295.7276
          ],
          [
            13475793.2498,
            1647285.7276
          ],
          [
            13475823.2498,
            1647285.7276
          ],
          [
            13475833.2498,
            1647275.7276
          ],
          [
            13475843.2498,
            1647275.7276
          ],
          [
            13475853.2498,
            1647265.7276
          ],
          [
            13475863.2498,
            1647265.7276
          ],
          [
            13475873.2498,
            1647255.7276
          ],
          [
            13475883.2498,
            1647255.7276
          ],
          [
            13475903.2498,
            1647235.7276
          ],
          [
            13475913.2498,
            1647235.7276
          ],
          [
            13475933.2498,
            1647215.7276
          ],
          [
            13475943.2498,
            1647215.7276
          ],
          [
            13475953.2498,
            1647205.7276
          ],
          [
            13475973.2498,
            1647205.7276
          ],
          [
            13475983.2498,
            1647195.7276
          ],
          [
            13476033.2498,
            1647195.7276
          ],
          [
            13476043.2498,
            1647205.7276
          ],
          [
            13476073.2498,
            1647205.7276
          ],
          [
            13476083.2498,
            1647215.7276
          ],
          [
            13476093.2498,
            1647215.7276
          ],
          [
            13476103.2498,
            1647225.7276
          ],
          [
            13476123.2498,
            1647225.7276
          ],
          [
            13476133.2498,
            1647235.7276
          ],
          [
            13476153.2498,
            1647235.7276
          ],
          [
            13476163.2498,
            1647235.7276
          ],
          [
            13476183.2498,
            1647215.7276
          ],
          [
            13476183.2498,
            1647205.7276
          ],
          [
            13476203.2498,
            1647185.7276
          ],
          [
            13476203.2498,
            1647125.7276
          ],
          [
            13476213.2498,
            1647115.7276
          ],
          [
            13476213.2498,
            1647095.7276
          ],
          [
            13476223.2498,
            1647085.7276
          ],
          [
            13476223.2498,
            1647055.7276
          ],
          [
            13476233.2498,
            1647045.7276
          ],
          [
            13476233.2498,
            1647025.7276
          ],
          [
            13476243.2498,
            1647015.7276
          ],
          [
            13476243.2498,
            1646995.7276
          ],
          [
            13476253.2498,
            1646985.7276
          ],
          [
            13476253.2498,
            1646975.7276
          ],
          [
            13476343.2498,
            1646885.7276
          ],
          [
            13476403.2498,
            1646825.7276
          ],
          [
            13476403.2498,
            1646815.7276
          ],
          [
            13476413.2498,
            1646805.7276
          ],
          [
            13476413.2498,
            1646795.7276
          ],
          [
            13476423.2498,
            1646785.7276
          ],
          [
            13476423.2498,
            1646775.7276
          ],
          [
            13476433.2498,
            1646765.7276
          ],
          [
            13476433.2498,
            1646755.7276
          ],
          [
            13476443.2498,
            1646745.7276
          ],
          [
            13476443.2498,
            1646735.7276
          ],
          [
            13476453.2498,
            1646725.7276
          ],
          [
            13476453.2498,
            1646715.7276
          ],
          [
            13476463.2498,
            1646705.7276
          ],
          [
            13476463.2498,
            1646695.7276
          ],
          [
            13476473.2498,
            1646685.7276
          ],
          [
            13476473.2498,
            1646675.7276
          ],
          [
            13476483.2498,
            1646665.7276
          ],
          [
            13476483.2498,
            1646655.7276
          ],
          [
            13476503.2498,
            1646635.7276
          ],
          [
            13476503.2498,
            1646625.7276
          ],
          [
            13476513.2498,
            1646615.7276
          ],
          [
            13476513.2498,
            1646605.7276
          ],
          [
            13476523.2498,
            1646595.7276
          ],
          [
            13476523.2498,
            1646585.7276
          ],
          [
            13476543.2498,
            1646565.7276
          ],
          [
            13476543.2498,
            1646555.7276
          ],
          [
            13476573.2498,
            1646525.7276
          ],
          [
            13476583.2498,
            1646525.7276
          ],
          [
            13476683.2498,
            1646425.7276
          ],
          [
            13476683.2498,
            1646405.7276
          ],
          [
            13476693.2498,
            1646395.7276
          ],
          [
            13476693.2498,
            1646365.7276
          ],
          [
            13476693.2498,
            1646355.7276
          ],
          [
            13476653.2498,
            1646315.7276
          ],
          [
            13476633.2498,
            1646315.7276
          ],
          [
            13476623.2498,
            1646305.7276
          ],
          [
            13476613.2498,
            1646305.7276
          ],
          [
            13476603.2498,
            1646295.7276
          ],
          [
            13476593.2498,
            1646295.7276
          ],
          [
            13476583.2498,
            1646285.7276
          ],
          [
            13476573.2498,
            1646285.7276
          ],
          [
            13476563.2498,
            1646275.7276
          ],
          [
            13476553.2498,
            1646275.7276
          ],
          [
            13476543.2498,
            1646265.7276
          ],
          [
            13476533.2498,
            1646265.7276
          ],
          [
            13476523.2498,
            1646255.7276
          ],
          [
            13476513.2498,
            1646255.7276
          ],
          [
            13476503.2498,
            1646245.7276
          ],
          [
            13476493.2498,
            1646245.7276
          ],
          [
            13476483.2498,
            1646235.7276
          ],
          [
            13476473.2498,
            1646235.7276
          ],
          [
            13476463.2498,
            1646225.7276
          ],
          [
            13476453.2498,
            1646225.7276
          ],
          [
            13476443.2498,
            1646215.7276
          ],
          [
            13476433.2498,
            1646215.7276
          ],
          [
            13476423.2498,
            1646205.7276
          ],
          [
            13476413.2498,
            1646205.7276
          ],
          [
            13476403.2498,
            1646195.7276
          ],
          [
            13476393.2498,
            1646195.7276
          ],
          [
            13476383.2498,
            1646185.7276
          ],
          [
            13476373.2498,
            1646185.7276
          ],
          [
            13476403.2498,
            1646155.7276
          ],
          [
            13476403.2498,
            1646145.7276
          ],
          [
            13476413.2498,
            1646135.7276
          ],
          [
            13476413.2498,
            1646125.7276
          ],
          [
            13476423.2498,
            1646115.7276
          ],
          [
            13476423.2498,
            1646105.7276
          ],
          [
            13476433.2498,
            1646095.7276
          ],
          [
            13476433.2498,
            1646085.7276
          ],
          [
            13476443.2498,
            1646075.7276
          ],
          [
            13476443.2498,
            1646065.7276
          ],
          [
            13476453.2498,
            1646055.7276
          ],
          [
            13476453.2498,
            1646035.7276
          ],
          [
            13476463.2498,
            1646025.7276
          ],
          [
            13476463.2498,
            1646015.7276
          ],
          [
            13476473.2498,
            1646005.7276
          ],
          [
            13476473.2498,
            1645995.7276
          ],
          [
            13476483.2498,
            1645985.7276
          ],
          [
            13476483.2498,
            1645975.7276
          ],
          [
            13476493.2498,
            1645965.7276
          ],
          [
            13476493.2498,
            1645955.7276
          ],
          [
            13476503.2498,
            1645945.7276
          ],
          [
            13476503.2498,
            1645935.7276
          ],
          [
            13476513.2498,
            1645925.7276
          ],
          [
            13476513.2498,
            1645905.7276
          ],
          [
            13476523.2498,
            1645895.7276
          ],
          [
            13476523.2498,
            1645885.7276
          ],
          [
            13476533.2498,
            1645875.7276
          ],
          [
            13476533.2498,
            1645865.7276
          ],
          [
            13476543.2498,
            1645855.7276
          ],
          [
            13476543.2498,
            1645845.7276
          ],
          [
            13476553.2498,
            1645835.7276
          ],
          [
            13476553.2498,
            1645825.7276
          ],
          [
            13476563.2498,
            1645815.7276
          ],
          [
            13476563.2498,
            1645795.7276
          ],
          [
            13476573.2498,
            1645785.7276
          ],
          [
            13476573.2498,
            1645775.7276
          ],
          [
            13476583.2498,
            1645765.7276
          ],
          [
            13476583.2498,
            1645755.7276
          ],
          [
            13476593.2498,
            1645745.7276
          ],
          [
            13476593.2498,
            1645735.7276
          ],
          [
            13476603.2498,
            1645725.7276
          ],
          [
            13476603.2498,
            1645715.7276
          ],
          [
            13476613.2498,
            1645705.7276
          ],
          [
            13476613.2498,
            1645695.7276
          ],
          [
            13476623.2498,
            1645685.7276
          ],
          [
            13476623.2498,
            1645665.7276
          ],
          [
            13476633.2498,
            1645655.7276
          ],
          [
            13476633.2498,
            1645645.7276
          ],
          [
            13476643.2498,
            1645635.7276
          ],
          [
            13476643.2498,
            1645625.7276
          ],
          [
            13476653.2498,
            1645615.7276
          ],
          [
            13476653.2498,
            1645605.7276
          ],
          [
            13476663.2498,
            1645595.7276
          ],
          [
            13476663.2498,
            1645585.7276
          ],
          [
            13476653.2498,
            1645575.7276
          ],
          [
            13476643.2498,
            1645575.7276
          ],
          [
            13476633.2498,
            1645565.7276
          ],
          [
            13476613.2498,
            1645565.7276
          ],
          [
            13476603.2498,
            1645555.7276
          ],
          [
            13476583.2498,
            1645555.7276
          ],
          [
            13476573.2498,
            1645545.7276
          ],
          [
            13476553.2498,
            1645545.7276
          ],
          [
            13476543.2498,
            1645535.7276
          ],
          [
            13476523.2498,
            1645535.7276
          ],
          [
            13476513.2498,
            1645525.7276
          ],
          [
            13476493.2498,
            1645525.7276
          ],
          [
            13476483.2498,
            1645515.7276
          ],
          [
            13476463.2498,
            1645515.7276
          ],
          [
            13476453.2498,
            1645505.7276
          ],
          [
            13476433.2498,
            1645505.7276
          ],
          [
            13476423.2498,
            1645495.7276
          ],
          [
            13476403.2498,
            1645495.7276
          ],
          [
            13476393.2498,
            1645485.7276
          ],
          [
            13476363.2498,
            1645485.7276
          ],
          [
            13476353.2498,
            1645475.7276
          ],
          [
            13476333.2498,
            1645475.7276
          ],
          [
            13476323.2498,
            1645465.7276
          ],
          [
            13476303.2498,
            1645465.7276
          ],
          [
            13476293.2498,
            1645455.7276
          ],
          [
            13476283.2498,
            1645455.7276
          ],
          [
            13476273.2498,
            1645455.7276
          ],
          [
            13476263.2498,
            1645445.7276
          ],
          [
            13476243.2498,
            1645445.7276
          ],
          [
            13476233.2498,
            1645435.7276
          ],
          [
            13476213.2498,
            1645435.7276
          ],
          [
            13476203.2498,
            1645425.7276
          ],
          [
            13476193.2498,
            1645425.7276
          ],
          [
            13476183.2498,
            1645415.7276
          ],
          [
            13476163.2498,
            1645415.7276
          ],
          [
            13476153.2498,
            1645405.7276
          ],
          [
            13476143.2498,
            1645405.7276
          ],
          [
            13476123.2498,
            1645385.7276
          ],
          [
            13476113.2498,
            1645385.7276
          ],
          [
            13476083.2498,
            1645355.7276
          ],
          [
            13476073.2498,
            1645355.7276
          ],
          [
            13476043.2498,
            1645325.7276
          ],
          [
            13476033.2498,
            1645325.7276
          ],
          [
            13476013.2498,
            1645305.7276
          ],
          [
            13476003.2498,
            1645305.7276
          ],
          [
            13475973.2498,
            1645275.7276
          ],
          [
            13475963.2498,
            1645275.7276
          ],
          [
            13475943.2498,
            1645255.7276
          ],
          [
            13475933.2498,
            1645255.7276
          ],
          [
            13475903.2498,
            1645225.7276
          ],
          [
            13475893.2498,
            1645225.7276
          ],
          [
            13475873.2498,
            1645205.7276
          ],
          [
            13475863.2498,
            1645205.7276
          ],
          [
            13475843.2498,
            1645185.7276
          ],
          [
            13475833.2498,
            1645185.7276
          ],
          [
            13475793.2498,
            1645145.7276
          ],
          [
            13475783.2498,
            1645145.7276
          ],
          [
            13475763.2498,
            1645125.7276
          ],
          [
            13475753.2498,
            1645125.7276
          ],
          [
            13475733.2498,
            1645105.7276
          ],
          [
            13475723.2498,
            1645105.7276
          ],
          [
            13475693.2498,
            1645075.7276
          ],
          [
            13475683.2498,
            1645075.7276
          ],
          [
            13475653.2498,
            1645045.7276
          ],
          [
            13475643.2498,
            1645045.7276
          ],
          [
            13475633.2498,
            1645035.7276
          ],
          [
            13475543.2498,
            1645035.7276
          ],
          [
            13475533.2498,
            1645025.7276
          ],
          [
            13475533.2498,
            1645005.7276
          ],
          [
            13475533.2498,
            1644985.7276
          ],
          [
            13475543.2498,
            1644975.7276
          ],
          [
            13475553.2498,
            1644965.7276
          ],
          [
            13475553.2498,
            1644955.7276
          ],
          [
            13475553.2498,
            1644935.7276
          ],
          [
            13475563.2498,
            1644925.7276
          ],
          [
            13475573.2498,
            1644915.7276
          ],
          [
            13475573.2498,
            1644895.7276
          ],
          [
            13475593.2498,
            1644875.7276
          ],
          [
            13475593.2498,
            1644865.7276
          ],
          [
            13475603.2498,
            1644855.7276
          ],
          [
            13475603.2498,
            1644835.7276
          ],
          [
            13475613.2498,
            1644825.7276
          ],
          [
            13475613.2498,
            1644815.7276
          ],
          [
            13475623.2498,
            1644805.7276
          ],
          [
            13475623.2498,
            1644795.7276
          ],
          [
            13475633.2498,
            1644785.7276
          ],
          [
            13475633.2498,
            1644765.7276
          ],
          [
            13475643.2498,
            1644755.7276
          ],
          [
            13475643.2498,
            1644745.7276
          ],
          [
            13475653.2498,
            1644735.7276
          ],
          [
            13475653.2498,
            1644725.7276
          ],
          [
            13475663.2498,
            1644715.7276
          ],
          [
            13475663.2498,
            1644705.7276
          ],
          [
            13475673.2498,
            1644695.7276
          ],
          [
            13475673.2498,
            1644675.7276
          ],
          [
            13475683.2498,
            1644665.7276
          ],
          [
            13475683.2498,
            1644655.7276
          ],
          [
            13475693.2498,
            1644645.7276
          ],
          [
            13475693.2498,
            1644635.7276
          ],
          [
            13475693.2498,
            1644615.7276
          ],
          [
            13475703.2498,
            1644605.7276
          ],
          [
            13475713.2498,
            1644595.7276
          ],
          [
            13475713.2498,
            1644575.7276
          ],
          [
            13475723.2498,
            1644565.7276
          ],
          [
            13475723.2498,
            1644545.7276
          ],
          [
            13475733.2498,
            1644535.7276
          ],
          [
            13475743.2498,
            1644525.7276
          ],
          [
            13475743.2498,
            1644505.7276
          ],
          [
            13475753.2498,
            1644495.7276
          ],
          [
            13475763.2498,
            1644485.7276
          ],
          [
            13475763.2498,
            1644455.7276
          ],
          [
            13475773.2498,
            1644445.7276
          ],
          [
            13475783.2498,
            1644435.7276
          ],
          [
            13475783.2498,
            1644415.7276
          ],
          [
            13475793.2498,
            1644405.7276
          ],
          [
            13475803.2498,
            1644395.7276
          ],
          [
            13475803.2498,
            1644375.7276
          ],
          [
            13475813.2498,
            1644365.7276
          ],
          [
            13475813.2498,
            1644345.7276
          ],
          [
            13475823.2498,
            1644335.7276
          ],
          [
            13475843.2498,
            1644315.7276
          ],
          [
            13475843.2498,
            1644285.7276
          ],
          [
            13475853.2498,
            1644275.7276
          ],
          [
            13475853.2498,
            1644255.7276
          ],
          [
            13475863.2498,
            1644245.7276
          ],
          [
            13475873.2498,
            1644235.7276
          ],
          [
            13475873.2498,
            1644215.7276
          ],
          [
            13475893.2498,
            1644195.7276
          ],
          [
            13475893.2498,
            1644185.7276
          ],
          [
            13475903.2498,
            1644175.7276
          ],
          [
            13475903.2498,
            1644165.7276
          ],
          [
            13475913.2498,
            1644155.7276
          ],
          [
            13475913.2498,
            1644145.7276
          ],
          [
            13475923.2498,
            1644135.7276
          ],
          [
            13475923.2498,
            1644125.7276
          ],
          [
            13475933.2498,
            1644115.7276
          ],
          [
            13475933.2498,
            1644105.7276
          ],
          [
            13475943.2498,
            1644095.7276
          ],
          [
            13475943.2498,
            1644075.7276
          ],
          [
            13475953.2498,
            1644065.7276
          ],
          [
            13475953.2498,
            1644055.7276
          ],
          [
            13475963.2498,
            1644045.7276
          ],
          [
            13475963.2498,
            1644035.7276
          ],
          [
            13475973.2498,
            1644025.7276
          ],
          [
            13475973.2498,
            1644015.7276
          ],
          [
            13475983.2498,
            1644005.7276
          ],
          [
            13475983.2498,
            1643995.7276
          ],
          [
            13475993.2498,
            1643985.7276
          ],
          [
            13475993.2498,
            1643965.7276
          ],
          [
            13476003.2498,
            1643955.7276
          ],
          [
            13476003.2498,
            1643945.7276
          ],
          [
            13476013.2498,
            1643935.7276
          ],
          [
            13476013.2498,
            1643925.7276
          ],
          [
            13476023.2498,
            1643915.7276
          ],
          [
            13476023.2498,
            1643895.7276
          ],
          [
            13476033.2498,
            1643885.7276
          ],
          [
            13476033.2498,
            1643875.7276
          ],
          [
            13476043.2498,
            1643865.7276
          ],
          [
            13476043.2498,
            1643855.7276
          ],
          [
            13476053.2498,
            1643845.7276
          ],
          [
            13476053.2498,
            1643825.7276
          ],
          [
            13476063.2498,
            1643815.7276
          ],
          [
            13476063.2498,
            1643805.7276
          ],
          [
            13476073.2498,
            1643795.7276
          ],
          [
            13476073.2498,
            1643785.7276
          ],
          [
            13476083.2498,
            1643775.7276
          ],
          [
            13476083.2498,
            1643765.7276
          ],
          [
            13476093.2498,
            1643755.7276
          ],
          [
            13476093.2498,
            1643735.7276
          ],
          [
            13476103.2498,
            1643725.7276
          ],
          [
            13476103.2498,
            1643715.7276
          ],
          [
            13476113.2498,
            1643705.7276
          ],
          [
            13476113.2498,
            1643695.7276
          ],
          [
            13476123.2498,
            1643685.7276
          ],
          [
            13476123.2498,
            1643675.7276
          ],
          [
            13476133.2498,
            1643665.7276
          ],
          [
            13476133.2498,
            1643645.7276
          ],
          [
            13476143.2498,
            1643635.7276
          ],
          [
            13476143.2498,
            1643625.7276
          ],
          [
            13476153.2498,
            1643615.7276
          ],
          [
            13476153.2498,
            1643605.7276
          ],
          [
            13476163.2498,
            1643595.7276
          ],
          [
            13476163.2498,
            1643585.7276
          ],
          [
            13476173.2498,
            1643575.7276
          ],
          [
            13476173.2498,
            1643555.7276
          ],
          [
            13476183.2498,
            1643545.7276
          ],
          [
            13476183.2498,
            1643535.7276
          ],
          [
            13476193.2498,
            1643525.7276
          ],
          [
            13476193.2498,
            1643515.7276
          ],
          [
            13476203.2498,
            1643505.7276
          ],
          [
            13476203.2498,
            1643495.7276
          ],
          [
            13476213.2498,
            1643485.7276
          ],
          [
            13476213.2498,
            1643465.7276
          ],
          [
            13476223.2498,
            1643455.7276
          ],
          [
            13476223.2498,
            1643445.7276
          ],
          [
            13476233.2498,
            1643435.7276
          ],
          [
            13476233.2498,
            1643425.7276
          ],
          [
            13476243.2498,
            1643415.7276
          ],
          [
            13476243.2498,
            1643395.7276
          ],
          [
            13476253.2498,
            1643385.7276
          ],
          [
            13476253.2498,
            1643375.7276
          ],
          [
            13476263.2498,
            1643365.7276
          ],
          [
            13476263.2498,
            1643345.7276
          ],
          [
            13476273.2498,
            1643335.7276
          ],
          [
            13476273.2498,
            1643315.7276
          ],
          [
            13476283.2498,
            1643305.7276
          ],
          [
            13476283.2498,
            1643275.7276
          ],
          [
            13476293.2498,
            1643265.7276
          ],
          [
            13476293.2498,
            1643225.7276
          ],
          [
            13476303.2498,
            1643215.7276
          ],
          [
            13476303.2498,
            1643185.7276
          ],
          [
            13476313.2498,
            1643175.7276
          ],
          [
            13476313.2498,
            1643105.7276
          ],
          [
            13476323.2498,
            1643095.7276
          ],
          [
            13476323.2498,
            1642865.7276
          ],
          [
            13476313.2498,
            1642855.7276
          ],
          [
            13476313.2498,
            1642795.7276
          ],
          [
            13476303.2498,
            1642785.7276
          ],
          [
            13476303.2498,
            1642745.7276
          ],
          [
            13476293.2498,
            1642735.7276
          ],
          [
            13476293.2498,
            1642715.7276
          ],
          [
            13476283.2498,
            1642705.7276
          ],
          [
            13476283.2498,
            1642675.7276
          ],
          [
            13476273.2498,
            1642665.7276
          ],
          [
            13476273.2498,
            1642645.7276
          ],
          [
            13476263.2498,
            1642635.7276
          ],
          [
            13476263.2498,
            1642615.7276
          ],
          [
            13476253.2498,
            1642605.7276
          ],
          [
            13476253.2498,
            1642585.7276
          ],
          [
            13476243.2498,
            1642575.7276
          ],
          [
            13476243.2498,
            1642545.7276
          ],
          [
            13476233.2498,
            1642535.7276
          ],
          [
            13476233.2498,
            1642515.7276
          ],
          [
            13476223.2498,
            1642505.7276
          ],
          [
            13476223.2498,
            1642485.7276
          ],
          [
            13476213.2498,
            1642475.7276
          ],
          [
            13476213.2498,
            1642455.7276
          ],
          [
            13476203.2498,
            1642445.7276
          ],
          [
            13476203.2498,
            1642425.7276
          ],
          [
            13476193.2498,
            1642415.7276
          ],
          [
            13476193.2498,
            1642395.7276
          ],
          [
            13476193.2498,
            1642355.7276
          ],
          [
            13476163.2498,
            1642325.7276
          ],
          [
            13476163.2498,
            1642305.7276
          ],
          [
            13476153.2498,
            1642295.7276
          ],
          [
            13476153.2498,
            1642275.7276
          ],
          [
            13476143.2498,
            1642265.7276
          ],
          [
            13476143.2498,
            1642235.7276
          ],
          [
            13476133.2498,
            1642225.7276
          ],
          [
            13476133.2498,
            1642205.7276
          ],
          [
            13476123.2498,
            1642195.7276
          ],
          [
            13476123.2498,
            1642175.7276
          ],
          [
            13476113.2498,
            1642165.7276
          ],
          [
            13476113.2498,
            1642145.7276
          ],
          [
            13476103.2498,
            1642135.7276
          ],
          [
            13476103.2498,
            1642115.7276
          ],
          [
            13476093.2498,
            1642105.7276
          ],
          [
            13476093.2498,
            1642085.7276
          ],
          [
            13476083.2498,
            1642075.7276
          ],
          [
            13476083.2498,
            1642055.7276
          ],
          [
            13476083.2498,
            1642025.7276
          ]
        ]
      },
      "properties": {
        "algorithm": "JPS",
        "runtime_ms": 268.16,
        "path_length_m": 25801.04,
        "steps": 878,
        "start": [
          0,
          1061
        ],
        "goal": [
          1903,
          757
        ],
        "found": true
      }
    }
  ]
}