{
"type": "FeatureCollection",
"name": "fw_astar_buffer",
"crs": { "type": "name", "properties": { "name": "urn:ogc:def:crs:OGC:1.3:CRS84" } },
"features": [
{ "type": "Feature", "properties": { }, "geometry": { "type": "Polygon", "coordinates": [ [ [ 121.050914327691615, 14.741204641372004 ], [ 121.051567524148965, 14.741777176956626 ], [ 121.05227560366481, 14.742285037362629 ], [ 121.05303174704629, 14.742723332084754 ], [ 121.053828672219311, 14.74308784053666 ], [ 121.054113258496969, 14.743186314639706 ], [ 121.054277829861306, 14.743261588413906 ], [ 121.055107862000824, 14.743548800328895 ], [ 121.055963007443566, 14.74375595030045 ], [ 121.056835030671436, 14.743881043591717 ], [ 121.057715533624105, 14.743922875627952 ], [ 121.061039300175338, 14.743922875627952 ], [ 121.061919803127978, 14.743881043591717 ], [ 121.062791826355863, 14.74375595030045 ], [ 121.063646971798605, 14.743548800328895 ], [ 121.064477003938109, 14.743261588413906 ], [ 121.065273929111129, 14.74289708025287 ], [ 121.066030072492623, 14.742458785880469 ], [ 121.066738152008483, 14.741950925879699 ], [ 121.067391348465833, 14.741378390751889 ], [ 121.067481179994246, 14.741291516079238 ], [ 121.068073202754192, 14.740659818911896 ], [ 121.068598350313906, 14.739975043035725 ], [ 121.069051565215318, 14.739243782748771 ], [ 121.069428482751164, 14.738473080056085 ], [ 121.069725472999551, 14.737670356867964 ], [ 121.06993967578201, 14.736843343537405 ], [ 121.070069028208664, 14.736000004424492 ], [ 121.070112284544948, 14.735148461204121 ], [ 121.070112284544948, 14.729266536426399 ], [ 121.070158859737077, 14.728962869928051 ], [ 121.070202116073361, 14.728111299206599 ], [ 121.070202116073361, 14.715078917833202 ], [ 121.070651273715441, 14.715078917833202 ], [ 121.071531776668095, 14.715037080260252 ], [ 121.07240379989598, 14.714911970412224 ], [ 121.07325894533875, 14.714704793023586 ], [ 121.073466985841009, 14.714632796305679 ], [ 121.073528439923848, 14.714617907718949 ], [ 121.073736480426206, 14.714545910972339 ], [ 121.073797934509201, 14.714531022379649 ], [ 121.074005975011445, 14.714459025604398 ], [ 121.074067429094313, 14.71444413700581 ], [ 121.074275469596515, 14.714372140201908 ], [ 121.074336923679539, 14.714357251597354 ], [ 121.074544964181868, 14.714285254764734 ], [ 121.074606418264921, 14.714270366154246 ], [ 121.074814458767236, 14.71419836929296 ], [ 121.074875912850018, 14.714183480676601 ], [ 121.075083953352305, 14.714111483786654 ], [ 121.075145407435301, 14.714096595164321 ], [ 121.07535344793753, 14.714024598245711 ], [ 121.075414902020583, 14.714009709617439 ], [ 121.07610786378693, 14.713769895012078 ], [ 121.076625881731275, 14.713695574153308 ], [ 121.076654044051097, 14.713688751190293 ], [ 121.079903921141863, 14.713688751190293 ], [ 121.080784424094517, 14.713646913350763 ], [ 121.081334034842342, 14.713568059776938 ], [ 121.081503076321653, 14.713560027624828 ], [ 121.082008203868796, 14.713487556102466 ], [ 121.082311560077471, 14.713473141864277 ], [ 121.083183583305342, 14.713348031119445 ], [ 121.08354119648844, 14.713261391031891 ], [ 121.08354290941881, 14.713261145274517 ], [ 121.083639629374503, 14.713237712616136 ], [ 121.084081898589673, 14.713174259394883 ], [ 121.084937044032472, 14.712967080356144 ], [ 121.085145084534545, 14.712895083064872 ], [ 121.085206538617399, 14.712880194359574 ], [ 121.0854145791197, 14.712808197039568 ], [ 121.085476033202752, 14.712793308328287 ], [ 121.085684073704954, 14.712721310979637 ], [ 121.085745527787878, 14.71270642226246 ], [ 121.086575559927354, 14.712419169703614 ], [ 121.087372485100374, 14.712054609961509 ], [ 121.087410908865067, 14.712032334706233 ], [ 121.087552148157329, 14.711967723601461 ], [ 121.087590571922135, 14.711945448337252 ], [ 121.087731811214496, 14.711880837206692 ], [ 121.087770234979004, 14.711858561933777 ], [ 121.087911474270882, 14.711793950777714 ], [ 121.087949898035632, 14.711771675495815 ], [ 121.08809113732778, 14.711707064313909 ], [ 121.088129561092245, 14.7116847890233 ], [ 121.088270800383924, 14.711620177815892 ], [ 121.08902694376529, 14.711181820550127 ], [ 121.089154403934529, 14.711090388519015 ], [ 121.089296438351212, 14.711008047100098 ], [ 121.090004517867058, 14.710500113821272 ], [ 121.090657714324422, 14.709927496086548 ], [ 121.090837377381234, 14.709753721638174 ], [ 121.090927208909875, 14.709666834361876 ], [ 121.091017040438075, 14.709579947051427 ], [ 121.091106871967057, 14.709493059705602 ], [ 121.091196703495001, 14.70940617232618 ], [ 121.091286535023286, 14.709319284911887 ], [ 121.091376366551771, 14.709232397462783 ], [ 121.091466198080255, 14.709145509979095 ], [ 121.091556029608512, 14.709058622461031 ], [ 121.091645861136499, 14.70897173490866 ], [ 121.091735692665438, 14.708884847320771 ], [ 121.091825524193695, 14.70879795969894 ], [ 121.091915355722406, 14.708711072042085 ], [ 121.092558811248367, 14.708018099028752 ], [ 121.092721416683219, 14.707799888436524 ], [ 121.092866704595792, 14.707644840407308 ], [ 121.093391852155534, 14.706959960831288 ], [ 121.093659887899534, 14.706527421122255 ], [ 121.09366134674076, 14.706525518544412 ], [ 121.094114561642201, 14.70579414606787 ], [ 121.094231065439217, 14.705555888500085 ], [ 121.094316735821167, 14.705410243562898 ], [ 121.09440656734958, 14.705236465518272 ], [ 121.094496398877723, 14.705062687335866 ], [ 121.094773306508756, 14.704416069182813 ], [ 121.095013538929749, 14.703891919621125 ], [ 121.095062335000463, 14.703751637328871 ], [ 121.095120299876953, 14.703633094446472 ], [ 121.095417290125354, 14.702830243005511 ], [ 121.095523098483383, 14.702421663724751 ], [ 121.09559695318228, 14.702222012056643 ], [ 121.095811155964682, 14.701394864295708 ], [ 121.095867079872804, 14.701030198286535 ], [ 121.095867728148676, 14.70102791594331 ], [ 121.096021980943789, 14.700108483372333 ], [ 121.096071352308044, 14.699218795070566 ], [ 121.096120171448135, 14.698900454362962 ], [ 121.09616342778439, 14.69804876630246 ], [ 121.09616342778439, 14.69066282851756 ], [ 121.096120171448135, 14.689811108345035 ], [ 121.096073596255977, 14.6895073869453 ], [ 121.096073596255977, 14.688055967341517 ], [ 121.096030339919722, 14.687204237010539 ], [ 121.095900987493039, 14.686360706037389 ], [ 121.095876760405417, 14.686267146083392 ], [ 121.095811155964682, 14.685839326028171 ], [ 121.095721578525499, 14.685493395636676 ], [ 121.095721324436241, 14.685491738664124 ], [ 121.095664422172831, 14.685271993066948 ], [ 121.095631492907842, 14.685057253682306 ], [ 121.095417290125411, 14.684230040941273 ], [ 121.095342852043373, 14.684028795456692 ], [ 121.095327458596941, 14.683969348551301 ], [ 121.09525302051496, 14.683768102826914 ], [ 121.095237627068542, 14.683708655850577 ], [ 121.094940636820141, 14.682905731197284 ], [ 121.094862800361682, 14.682746534113123 ], [ 121.094760973763186, 14.68247124107627 ], [ 121.094578214083882, 14.682097446061563 ], [ 121.09449147917806, 14.681862953457276 ], [ 121.094308719498727, 14.681489157402684 ], [ 121.094221984592906, 14.68125466414611 ], [ 121.093845067057103, 14.68048375664555 ], [ 121.093822036738871, 14.680446587254892 ], [ 121.09375523552886, 14.68030995877637 ], [ 121.093745757720257, 14.680294662216845 ], [ 121.093682995422327, 14.680124979507264 ], [ 121.093395312522006, 14.679536580354766 ], [ 121.093323669308717, 14.67934288672398 ], [ 121.093245832850286, 14.679183687046335 ], [ 121.093144006251833, 14.678908389524702 ], [ 121.093066169793488, 14.678749189530931 ], [ 121.092964343195064, 14.67847389146249 ], [ 121.092886506736647, 14.678314691152314 ], [ 121.092784680138251, 14.678039392537125 ], [ 121.092629007221447, 14.677720991168519 ], [ 121.092425354024414, 14.677170392096585 ], [ 121.09204843648844, 14.676399470200689 ], [ 121.09203895868022, 14.676384173368358 ], [ 121.091976196382504, 14.676214487625835 ], [ 121.091793436703284, 14.675840681918345 ], [ 121.091706701797364, 14.675606182605925 ], [ 121.091329784261546, 14.674835255198055 ], [ 121.091306753943257, 14.674798084847504 ], [ 121.091239952733133, 14.67466145284067 ], [ 121.091230474924572, 14.674646155886281 ], [ 121.091167712626827, 14.674476468795559 ], [ 121.090790795090953, 14.673705537407036 ], [ 121.090767764772693, 14.673668366864611 ], [ 121.09070096356254, 14.673531734152265 ], [ 121.090677933244308, 14.673494563580341 ], [ 121.090611132034155, 14.673357930759492 ], [ 121.090588101715923, 14.673320760158051 ], [ 121.090521300505799, 14.673184127228733 ], [ 121.090498270187467, 14.673146956597586 ], [ 121.090431468977286, 14.673010323559632 ], [ 121.090408438659182, 14.672973152899349 ], [ 121.090341637449214, 14.672836519753211 ], [ 121.090318607130797, 14.672799349062943 ], [ 121.090251805920516, 14.672662715807684 ], [ 121.090228775602242, 14.672625545088033 ], [ 121.090161974392089, 14.672488911724562 ], [ 121.090138944073857, 14.672451740975491 ], [ 121.090072142863704, 14.672315107503495 ], [ 121.090049112545373, 14.672277936724758 ], [ 121.089982311335191, 14.672141303144167 ], [ 121.089529096433722, 14.671409815602901 ], [ 121.089527637592525, 14.671407912719364 ], [ 121.089259601848624, 14.670975302648877 ], [ 121.089165070944802, 14.670851998134189 ], [ 121.089079938791755, 14.670714594462192 ], [ 121.088985407887932, 14.67059128980061 ], [ 121.088900275734929, 14.670453885965001 ], [ 121.08889881689376, 14.670451983073193 ], [ 121.088630781149604, 14.670019371112755 ], [ 121.08853625024588, 14.669896066059618 ], [ 121.088451118092934, 14.669758661787599 ], [ 121.087925970533192, 14.669073663491538 ], [ 121.087781743896201, 14.668919720760449 ], [ 121.087566644419525, 14.668639145899331 ], [ 121.087550134052449, 14.668621523251332 ], [ 121.087297149834356, 14.668291531204575 ], [ 121.087280639467195, 14.668273908528493 ], [ 121.087027655249202, 14.667943915957796 ], [ 121.087011144882041, 14.667926293253746 ], [ 121.086758160663791, 14.667596300158708 ], [ 121.086358501487396, 14.667169714058067 ], [ 121.086219171493312, 14.666987971182392 ], [ 121.085627148733337, 14.666356059003666 ], [ 121.085357654148098, 14.666095345315208 ], [ 121.085267822620438, 14.666008440684102 ], [ 121.085177991091356, 14.665921536017144 ], [ 121.085088159563028, 14.6658346313164 ], [ 121.084998328034686, 14.665747726581161 ], [ 121.084818664977647, 14.66557391700684 ], [ 121.084728833448779, 14.665487012167615 ], [ 121.084639001920877, 14.66540010729482 ], [ 121.084549170392393, 14.665313202386962 ], [ 121.084459338864107, 14.665226297444812 ], [ 121.084279675807153, 14.665052487456617 ], [ 121.084189844279408, 14.664965582411487 ], [ 121.084100012750497, 14.664878677330714 ], [ 121.083920349693514, 14.664704867066556 ], [ 121.083830518165342, 14.664617961883012 ], [ 121.083740686636702, 14.664531056664556 ], [ 121.083650855107834, 14.664444151411381 ], [ 121.083561023579932, 14.66435724612465 ], [ 121.083471192051576, 14.664270340802991 ], [ 121.083291528994621, 14.664096530055915 ], [ 121.083201697466293, 14.664009624630776 ], [ 121.083111865938164, 14.663922719171355 ], [ 121.08302203440978, 14.663835813677164 ], [ 121.082368837952401, 14.663263073694425 ], [ 121.082232054862857, 14.663164932465021 ], [ 121.081650185724911, 14.662654732677986 ], [ 121.081411239315017, 14.662483289237251 ], [ 121.081111196554403, 14.662220202345843 ], [ 121.080770086823719, 14.661975456455973 ], [ 121.080751870440821, 14.661959483732783 ], [ 121.080043790924989, 14.661451436479577 ], [ 121.079922843881505, 14.661381304094059 ], [ 121.079781940011173, 14.661280205354206 ], [ 121.079763723628105, 14.661264232580137 ], [ 121.079055644112245, 14.66075618371409 ], [ 121.078913609695789, 14.660673823334983 ], [ 121.078786149527019, 14.660582370177886 ], [ 121.078644115110535, 14.660500009733422 ], [ 121.078516654941566, 14.660408556503613 ], [ 121.078374620525665, 14.660326195994118 ], [ 121.078247160357321, 14.660234742692149 ], [ 121.078105125940468, 14.66015238211671 ], [ 121.077977665771513, 14.660060928741743 ], [ 121.077835631354645, 14.659978568100954 ], [ 121.077708171185463, 14.659887114653277 ], [ 121.077566136769462, 14.659804753947659 ], [ 121.077438676600693, 14.659713300427672 ], [ 121.077317729557691, 14.659643167485857 ], [ 121.07680985590207, 14.659278764259609 ], [ 121.076688908858728, 14.659208631178439 ], [ 121.076181035203049, 14.658844227229233 ], [ 121.07603900078675, 14.658761866131268 ], [ 121.075911540617895, 14.65867041217578 ], [ 121.075769506201524, 14.658588051012414 ], [ 121.075642046032598, 14.658496596984318 ], [ 121.074885902651118, 14.658058133193647 ], [ 121.074744663358857, 14.657993506136162 ], [ 121.074706239593993, 14.657971225372094 ], [ 121.074633040331946, 14.657937731474044 ], [ 121.074564067691853, 14.657888242728323 ], [ 121.074422033275169, 14.657805881270676 ], [ 121.074294573106059, 14.657714426915915 ], [ 121.074152538689972, 14.657632065393271 ], [ 121.074025078521288, 14.657540610966219 ], [ 121.073961704906935, 14.657503862471614 ], [ 121.073949050040369, 14.657491619448527 ], [ 121.073295853583048, 14.656918862875042 ], [ 121.072587774067273, 14.656410803929996 ], [ 121.071831630685821, 14.655972335964451 ], [ 121.071034705512844, 14.65560768209377 ], [ 121.07020467337334, 14.655320354510227 ], [ 121.069349527930655, 14.655113120644199 ], [ 121.068477504702798, 14.65498797650047 ], [ 121.067597001750158, 14.654946127426797 ], [ 121.066716498797504, 14.65498797650033 ], [ 121.065844475569648, 14.655113120643922 ], [ 121.064989330126906, 14.655320354509817 ], [ 121.064159297987374, 14.65560768209323 ], [ 121.063362372814325, 14.655972335963781 ], [ 121.062606229432802, 14.656410803929205 ], [ 121.061898149916914, 14.656918862874141 ], [ 121.061244953459493, 14.657491619447525 ], [ 121.06065293069949, 14.65812355720611 ], [ 121.060127783139706, 14.658808589759461 ], [ 121.059674568238236, 14.659540119403806 ], [ 121.059297650702305, 14.66031110067946 ], [ 121.059000660453847, 14.661114108238898 ], [ 121.058786457671289, 14.661941408371444 ], [ 121.058657105244563, 14.66278503349495 ], [ 121.058613848908223, 14.663636858896831 ], [ 121.058657105244436, 14.664488680984926 ], [ 121.058786457671019, 14.665332296294421 ], [ 121.059000660453421, 14.666159580489866 ], [ 121.059297650701737, 14.666962566601589 ], [ 121.059674568237526, 14.667733521743109 ], [ 121.060127783138896, 14.668465021571256 ], [ 121.060652930698552, 14.669150021772149 ], [ 121.061244953458441, 14.669781925885307 ], [ 121.061334784986855, 14.66986882901902 ], [ 121.061424616515723, 14.669955732118664 ], [ 121.061514448044264, 14.67004263518351 ], [ 121.061604279572549, 14.670129538213567 ], [ 121.061694111101076, 14.670216441209398 ], [ 121.06178394262929, 14.670303344170375 ], [ 121.061873774158443, 14.670390247097773 ], [ 121.061963605686344, 14.670477149989445 ], [ 121.062616802143722, 14.67104987109804 ], [ 121.062957911874435, 14.671294606843121 ], [ 121.062976128257432, 14.671310578885317 ], [ 121.063684207773264, 14.671818603258686 ], [ 121.063826242189506, 14.671900959445034 ], [ 121.063953702358546, 14.671992407874182 ], [ 121.06409573677476, 14.672074763995106 ], [ 121.064223196943516, 14.67216621235144 ], [ 121.064344143986887, 14.672236341281888 ], [ 121.064852017642494, 14.672600722941089 ], [ 121.064994052058765, 14.672683078833106 ], [ 121.065121512227762, 14.672774526935394 ], [ 121.065877655609242, 14.673212961254176 ], [ 121.066187649791019, 14.673354795833678 ], [ 121.06646898515389, 14.673556643201188 ], [ 121.066589932197189, 14.673626771685981 ], [ 121.06709780585291, 14.673991151029877 ], [ 121.067239840269039, 14.674073506398475 ], [ 121.067367300437937, 14.674164953919606 ], [ 121.067509334854364, 14.674247309222972 ], [ 121.06763679502312, 14.674338756671343 ], [ 121.067778829439732, 14.674421111909391 ], [ 121.067906289608558, 14.674512559285185 ], [ 121.068048324024986, 14.674594914457717 ], [ 121.068175784193912, 14.674686361760932 ], [ 121.068317818610012, 14.674768716867838 ], [ 121.06844527877881, 14.674860164098334 ], [ 121.068587313195309, 14.674942519140052 ], [ 121.068714773364064, 14.675033966297857 ], [ 121.068835720407463, 14.675104094309214 ], [ 121.068976624277724, 14.675205186664458 ], [ 121.068994840660793, 14.675221158421262 ], [ 121.069702920176653, 14.675729173715355 ], [ 121.069823867219995, 14.675799301503837 ], [ 121.069862607769593, 14.675827096067634 ], [ 121.070162650530222, 14.676090166604407 ], [ 121.070299433619567, 14.676188302038176 ], [ 121.070881302757485, 14.676698470278653 ], [ 121.070992229374838, 14.676778054691891 ], [ 121.071036590056408, 14.676820967903307 ], [ 121.071126421584353, 14.676907868241031 ], [ 121.071216253112567, 14.676994768544462 ], [ 121.071395916169578, 14.677168569048389 ], [ 121.071485747697864, 14.677255469248321 ], [ 121.071575579225737, 14.677342369413374 ], [ 121.071755242283231, 14.67751616964156 ], [ 121.071845073811502, 14.677603069703405 ], [ 121.071934905340044, 14.677689969731011 ], [ 121.0720247368684, 14.677776869723884 ], [ 121.072114568397353, 14.677863769682808 ], [ 121.072248760606172, 14.677993582587012 ], [ 121.0723310293926, 14.67810088910417 ], [ 121.072730688568981, 14.67852745389526 ], [ 121.072870018562995, 14.678709187186922 ], [ 121.072892801862992, 14.678733504245278 ], [ 121.073088080381908, 14.678995595766983 ], [ 121.073141286672168, 14.679052904272742 ], [ 121.073357574967289, 14.679343193456958 ], [ 121.073400742759034, 14.679389689421251 ], [ 121.073624550436847, 14.679681608872505 ], [ 121.073782175457609, 14.679936005859121 ], [ 121.073844790134672, 14.680017676003231 ], [ 121.073872487177894, 14.680064768169013 ], [ 121.074025318994302, 14.680269888962405 ], [ 121.074141501571575, 14.680457399945318 ], [ 121.074142960412928, 14.680459302750325 ], [ 121.074206233863052, 14.68056142183859 ], [ 121.074294596246915, 14.680732377145464 ], [ 121.074380266628793, 14.680878038532498 ], [ 121.074403409596499, 14.680925372718468 ], [ 121.074474259303713, 14.681079972074954 ], [ 121.074492475486309, 14.681115214975055 ], [ 121.074496108422423, 14.681125660274226 ], [ 121.07483358541738, 14.681862058646429 ], [ 121.074923416945779, 14.682035855282455 ], [ 121.075013248474505, 14.682209651780907 ], [ 121.07502782966634, 14.682234443346244 ], [ 121.075035097592917, 14.682255339743545 ], [ 121.075306933324626, 14.682848501425026 ], [ 121.075377494287778, 14.683039266042112 ], [ 121.075560253967083, 14.683413059446908 ], [ 121.075646988872904, 14.683647550388992 ], [ 121.075829748552422, 14.684021342754329 ], [ 121.075916483458244, 14.684255833043974 ], [ 121.076076250895923, 14.684582599258892 ], [ 121.076113075933861, 14.684688475701748 ], [ 121.0762524683647, 14.684992635065605 ], [ 121.076365641100139, 14.685298599371908 ], [ 121.076443477558641, 14.685457794598005 ], [ 121.076545304157165, 14.685733083874608 ], [ 121.076623140615553, 14.685892278784118 ], [ 121.076724967213977, 14.686167567513349 ], [ 121.076983626811298, 14.68669658920016 ], [ 121.077101222746393, 14.687034688303179 ], [ 121.077438699741336, 14.687771066773591 ], [ 121.077528531269749, 14.687944858712484 ], [ 121.077618362798106, 14.688118650513092 ], [ 121.077717509509597, 14.688287219376244 ], [ 121.077792614148436, 14.688433543558299 ], [ 121.077819874973699, 14.68851192035587 ], [ 121.078060176508643, 14.689036257627246 ], [ 121.07808936955891, 14.689120189475677 ], [ 121.078101205576985, 14.689146015591318 ], [ 121.078107290573612, 14.68916951427204 ], [ 121.078107290573612, 14.69057593364597 ], [ 121.078145884912999, 14.691380550036117 ], [ 121.078197122102026, 14.691734568569624 ], [ 121.078197122102026, 14.696310921052019 ], [ 121.075142850136032, 14.696310921052019 ], [ 121.074262347183407, 14.696352762213852 ], [ 121.07339032395555, 14.696477882698288 ], [ 121.072935990816774, 14.696587963894533 ], [ 121.072492008671375, 14.696651667712661 ], [ 121.072134395488277, 14.696738314391991 ], [ 121.072132682557836, 14.696738560167981 ], [ 121.071277537115165, 14.696945754607475 ], [ 121.071069496612807, 14.697017757158726 ], [ 121.071008042529655, 14.697032646945901 ], [ 121.070800002027298, 14.697104649468528 ], [ 121.070738547944273, 14.697119539249748 ], [ 121.070530507442172, 14.697191541743651 ], [ 121.070469053359304, 14.697206431518913 ], [ 121.069639021219771, 14.697493704094338 ], [ 121.069536852824342, 14.697540444988563 ], [ 121.069480906546715, 14.697554000250211 ], [ 121.069272866044471, 14.697626002600934 ], [ 121.069211411961604, 14.697640892346582 ], [ 121.069037166294322, 14.697701198358436 ], [ 121.065261382010718, 14.697701198358436 ], [ 121.064380879058078, 14.697743039253979 ], [ 121.063508855830221, 14.697868158942091 ], [ 121.063151242647123, 14.697954805138888 ], [ 121.063149529716739, 14.697955050913496 ], [ 121.062294384274097, 14.698162244199104 ], [ 121.062086343771654, 14.698234246349399 ], [ 121.062024889688615, 14.698249136053622 ], [ 121.06119485754914, 14.698536407257713 ], [ 121.060397932376119, 14.698900989574426 ], [ 121.059641788994639, 14.699339371499597 ], [ 121.058933709478808, 14.699847330745332 ], [ 121.05828051302143, 14.700419974919487 ], [ 121.058190681493016, 14.700506865875722 ], [ 121.058100849964532, 14.700593756797458 ], [ 121.058011018436204, 14.700680647684482 ], [ 121.057921186907663, 14.700767538537152 ], [ 121.057831355378795, 14.700854429355529 ], [ 121.057741523850922, 14.700941320138408 ], [ 121.057561860794024, 14.70111510160153 ], [ 121.057472029265895, 14.701201992280899 ], [ 121.05738219773697, 14.701288882926494 ], [ 121.057292366209651, 14.701375773535938 ], [ 121.057202534680357, 14.701462664112741 ], [ 121.057112703152001, 14.701549554654036 ], [ 121.057022871623531, 14.701636445160911 ], [ 121.056933040095174, 14.70172333563306 ], [ 121.056843208566917, 14.701810226070565 ], [ 121.056753377037793, 14.701897116474358 ], [ 121.056663545509892, 14.701984006842359 ], [ 121.056483882453207, 14.702157787475493 ], [ 121.056394050924595, 14.702244677740488 ], [ 121.056304219396381, 14.702331567970473 ], [ 121.056214387867854, 14.702418458166248 ], [ 121.055622365107894, 14.703050266124594 ], [ 121.055369380889957, 14.703380205709125 ], [ 121.055352870522754, 14.70339782555555 ], [ 121.05513777104575, 14.703678355810402 ], [ 121.054993544408603, 14.703832274067027 ], [ 121.054816329673557, 14.704063395045058 ], [ 121.054544386767191, 14.704353611138229 ], [ 121.05429140254904, 14.704683548753469 ], [ 121.054274892181809, 14.704701168494752 ], [ 121.053749744622067, 14.705386055157295 ], [ 121.053296529720654, 14.706117429001031 ], [ 121.05291961218478, 14.706888246065466 ], [ 121.052622621936393, 14.707691082583452 ], [ 121.052408419153906, 14.708518206490627 ], [ 121.052279066727223, 14.709361651901331 ], [ 121.052235810390968, 14.710213295833299 ], [ 121.052235810390968, 14.727042936252889 ], [ 121.052189235198824, 14.727346605426114 ], [ 121.052168047320166, 14.727763724857887 ], [ 121.051477692620551, 14.728258904245914 ], [ 121.050824496163202, 14.728831473853504 ], [ 121.050232473403256, 14.729463205319417 ], [ 121.049707325843514, 14.730148014237779 ], [ 121.049254110942101, 14.730879305056483 ], [ 121.048877193406241, 14.731650034613955 ], [ 121.04858020315784, 14.732452779985204 ], [ 121.048366000375381, 14.733279809983195 ], [ 121.048236647948698, 14.734123159626296 ], [ 121.048193391612443, 14.734974706854343 ], [ 121.048236647948698, 14.735826250753913 ], [ 121.048366000375381, 14.736669590539512 ], [ 121.04858020315784, 14.737496604529774 ], [ 121.048877193406241, 14.738299328358258 ], [ 121.049254110942101, 14.739070031665788 ], [ 121.049707325843514, 14.739801292536152 ], [ 121.050232473403256, 14.740486068958671 ], [ 121.050824496163202, 14.741117766630033 ], [ 121.050914327691615, 14.741204641372004 ] ] ] } }
]
}
