{
"type": "FeatureCollection",
"name": "fw_dijkstra_buffer",
"crs": { "type": "name", "properties": { "name": "urn:ogc:def:crs:OGC:1.3:CRS84" } },
"features": [
{ "type": "Feature", "properties": { }, "geometry": { "type": "Polygon", "coordinates": [ [ [ 121.03598797482185, 14.6438804289978 ], [ 121.035628009895206, 14.644416213087512 ], [ 121.034803799105958, 14.645961909776215 ], [ 121.034143367713057, 14.647579547209748 ], [ 121.033653327757065, 14.649252928678475 ], [ 121.033338585370728, 14.650965299707456 ], [ 121.03320229166016, 14.65269951584049 ], [ 121.033245811157002, 14.654438214313792 ], [ 121.033468708157173, 14.65616398789931 ], [ 121.033868751082878, 14.65785955917686 ], [ 121.03444193482467, 14.659507953490264 ], [ 121.0351825208392, 14.661092668856899 ], [ 121.036083094601977, 14.662597841130829 ], [ 121.037134639839195, 14.664008402768095 ], [ 121.038326628796142, 14.665310233606967 ], [ 121.039647127637707, 14.666490302156548 ], [ 121.041082915926523, 14.667536795982318 ], [ 121.042619618981846, 14.668439239886411 ], [ 121.04345036692213, 14.668822989043603 ], [ 121.04351670608915, 14.66887142155049 ], [ 121.043552106089109, 14.668896719935404 ], [ 121.044183726485684, 14.669328094032393 ], [ 121.044783626485696, 14.669719368281308 ], [ 121.045063329044993, 14.669898149919842 ], [ 121.046428170718869, 14.670752945468656 ], [ 121.047313365190647, 14.671326954593358 ], [ 121.047601285167062, 14.671515704461319 ], [ 121.048073782259323, 14.671815080806949 ], [ 121.048250212612928, 14.671923072655325 ], [ 121.048613182597407, 14.672167884429115 ], [ 121.048789862695529, 14.672285539509748 ], [ 121.050035362695539, 14.673104385742112 ], [ 121.050667770423004, 14.67352005525397 ], [ 121.051308683584466, 14.673941410259539 ], [ 121.052808439818847, 14.674927311206783 ], [ 121.052918561757679, 14.674999683146588 ], [ 121.053940799964906, 14.675684906467856 ], [ 121.054328198012726, 14.675957105026523 ], [ 121.054720167867814, 14.676224854318946 ], [ 121.056264867867796, 14.67725038717103 ], [ 121.057090492574943, 14.677756053540653 ], [ 121.0576527807861, 14.678132627119666 ], [ 121.057910237865755, 14.678305023796744 ], [ 121.057942658790608, 14.678326438530782 ], [ 121.058730958105954, 14.678874925525935 ], [ 121.058919858105952, 14.678996417490461 ], [ 121.059209213139155, 14.679182512326127 ], [ 121.059606146342759, 14.679469468955205 ], [ 121.060524879725506, 14.680091391803886 ], [ 121.060636579725553, 14.680162087104915 ], [ 121.060797672799552, 14.680258792255163 ], [ 121.060882113213651, 14.680314059114068 ], [ 121.061612700747276, 14.680794220408947 ], [ 121.0616794825618, 14.680837899606754 ], [ 121.061762953406884, 14.680892230824185 ], [ 121.061902623663642, 14.680984017343018 ], [ 121.062160614869484, 14.681153531909375 ], [ 121.062923249060105, 14.681654764166012 ], [ 121.063387006303742, 14.68195947960913 ], [ 121.063626912224137, 14.682120869530332 ], [ 121.063639513060892, 14.682129730833639 ], [ 121.063762625927041, 14.68221554127347 ], [ 121.064381229886749, 14.682642884217316 ], [ 121.064465548496855, 14.682705341779091 ], [ 121.064696229797789, 14.682894246169225 ], [ 121.065034657983446, 14.683178900196818 ], [ 121.065054003875431, 14.683195963761237 ], [ 121.065438708914726, 14.683569781022827 ], [ 121.065586773743973, 14.683726377776555 ], [ 121.065762734413198, 14.683925760752492 ], [ 121.065902793386599, 14.684096536043272 ], [ 121.065931653321769, 14.684133101698395 ], [ 121.065984374952635, 14.684201721145264 ], [ 121.066032003082142, 14.684265308310891 ], [ 121.066107864386694, 14.684369604013073 ], [ 121.066139581090752, 14.684414440181085 ], [ 121.066173071143083, 14.684463120368239 ], [ 121.066354134108352, 14.684737163452578 ], [ 121.066429132050047, 14.684884781627762 ], [ 121.066586330407361, 14.685186738733874 ], [ 121.066614821498447, 14.685240166230486 ], [ 121.066668555840863, 14.685352633076265 ], [ 121.066689569788039, 14.685396035457057 ], [ 121.066767222382111, 14.685558467517364 ], [ 121.066773068756959, 14.68557157553578 ], [ 121.067040459062227, 14.686171501278618 ], [ 121.067705572974901, 14.687665741558321 ], [ 121.06783393673382, 14.687954138913815 ], [ 121.067982701893825, 14.688301944521564 ], [ 121.068191444875325, 14.688802201138667 ], [ 121.068132001489175, 14.688820708497996 ], [ 121.067794963114764, 14.688929211771175 ], [ 121.06746023623927, 14.689040538095727 ], [ 121.067086217576076, 14.689043296643128 ], [ 121.065325922464382, 14.689139967097466 ], [ 121.0635838991725, 14.689403071674052 ], [ 121.061876924337071, 14.689830075937424 ], [ 121.0602214370588, 14.69041686665752 ], [ 121.058633380585235, 14.691157791458652 ], [ 121.057128048768305, 14.692045713303326 ], [ 121.055719938776306, 14.69307207928443 ], [ 121.054422611478202, 14.694227003060993 ], [ 121.05324856084512, 14.695499360141048 ], [ 121.052209093626374, 14.696876895091256 ], [ 121.051314220459545, 14.698346339637931 ], [ 121.050572559462438, 14.699893540519158 ], [ 121.049991253235888, 14.701503595854092 ], [ 121.04957590007659, 14.703160998713495 ], [ 121.049330500062553, 14.704849786506736 ], [ 121.049257416530082, 14.706553694744695 ], [ 121.049357353313496, 14.708256313696477 ], [ 121.049629347966999, 14.709941246430452 ], [ 121.050070781033313, 14.711592266717249 ], [ 121.050677401270775, 14.713193475274494 ], [ 121.051443366594839, 14.714729452849282 ], [ 121.052361300340749, 14.716185408665591 ], [ 121.053422362304687, 14.717547322808853 ], [ 121.054616333879963, 14.71880208117868 ], [ 121.055931716467569, 14.719937601712651 ], [ 121.057355842214164, 14.72094295066834 ], [ 121.05887499601026, 14.721808447846566 ], [ 121.060474547574387, 14.722525759745452 ], [ 121.062139092350577, 14.723087979750833 ], [ 121.063852599862656, 14.723489694593365 ], [ 121.065598568096632, 14.723727036434449 ], [ 121.06736018242394, 14.723797720081182 ], [ 121.06799679220741, 14.723793025559541 ], [ 121.068561121534913, 14.723793025559541 ], [ 121.069094449993585, 14.723797864959252 ], [ 121.069157219034466, 14.723798794017082 ], [ 121.069470151210908, 14.72380078555595 ], [ 121.069711217736298, 14.723800289165251 ], [ 121.070029884261004, 14.723799692458986 ], [ 121.070115589529678, 14.723799334262328 ], [ 121.070408489529697, 14.723797434413665 ], [ 121.071962650169368, 14.723722175821061 ], [ 121.071988050169381, 14.723719876003448 ], [ 121.072260920313241, 14.723693135703313 ], [ 121.072312120313214, 14.723687736130868 ], [ 121.073166513197847, 14.72357751502841 ], [ 121.073295513197849, 14.723557816578262 ], [ 121.074193838975788, 14.72339790618947 ], [ 121.074249838975803, 14.723386507077981 ], [ 121.075380709132986, 14.723119032091141 ], [ 121.075495509132963, 14.723088034469233 ], [ 121.076558365023942, 14.722766388529459 ], [ 121.077446615746737, 14.722468048589853 ], [ 121.077607191996037, 14.722414550638138 ], [ 121.077631624958812, 14.722414525614909 ], [ 121.078298414168998, 14.722413825163189 ], [ 121.078643035229859, 14.722410266110655 ], [ 121.078704235229864, 14.722409066206204 ], [ 121.078767649972079, 14.722407714562562 ], [ 121.079953349972101, 14.722380416736129 ], [ 121.08043073331234, 14.722363281910699 ], [ 121.080479933312333, 14.722360882101601 ], [ 121.081744272515706, 14.722255812192053 ], [ 121.081955072515697, 14.722231014152674 ], [ 121.082265912619377, 14.722191783149778 ], [ 121.082749101051718, 14.722126648874481 ], [ 121.082867650394647, 14.722116172771011 ], [ 121.083511467039173, 14.722047941478927 ], [ 121.083755667039171, 14.72201774386461 ], [ 121.084402633534921, 14.721926139035952 ], [ 121.084663233534911, 14.721884542304704 ], [ 121.085139583803695, 14.721802119396946 ], [ 121.085203383803702, 14.721790220327501 ], [ 121.085351832147026, 14.721761906277408 ], [ 121.085738532147019, 14.721686512163696 ], [ 121.08647186440102, 14.72152803244431 ], [ 121.086850864401043, 14.721438039404944 ], [ 121.088221227326272, 14.72105628313779 ], [ 121.088877627326283, 14.720845799049316 ], [ 121.091219876755687, 14.719912758801614 ], [ 121.091590976755668, 14.719734371523352 ], [ 121.09214625781145, 14.719455684891923 ], [ 121.092446357811411, 14.719298595893889 ], [ 121.092734761883733, 14.719144304502096 ], [ 121.092854761883743, 14.719078709049734 ], [ 121.093325685140599, 14.718812082349876 ], [ 121.09356198514061, 14.718673591781855 ], [ 121.095488428842557, 14.717370617375829 ], [ 121.095825428842531, 14.717109333609542 ], [ 121.09653602102064, 14.716528535109232 ], [ 121.096625421020647, 14.716451539687936 ], [ 121.097544161731264, 14.715602050645513 ], [ 121.097917261731254, 14.715231771222721 ], [ 121.098049698320665, 14.715098931753049 ], [ 121.098339198320659, 14.714805447883499 ], [ 121.09899011312136, 14.714108825003873 ], [ 121.099275013121343, 14.713786841672215 ], [ 121.099955854609391, 14.71296855715199 ], [ 121.100225154609404, 14.712624073692748 ], [ 121.101281042265654, 14.711114992745618 ], [ 121.101457542265649, 14.710831804384455 ], [ 121.101855414282724, 14.710160026039899 ], [ 121.102163914282713, 14.709611146908202 ], [ 121.102881322727612, 14.708182831824143 ], [ 121.103020722727621, 14.707869641681656 ], [ 121.103074552233664, 14.707747418511641 ], [ 121.103198652233672, 14.707462627315657 ], [ 121.103520974527427, 14.706669094356753 ], [ 121.103675274527419, 14.706260005515848 ], [ 121.104131616725127, 14.704872035776715 ], [ 121.10420668561153, 14.704605515307453 ], [ 121.104283925270011, 14.704340226405179 ], [ 121.104504615399591, 14.703503001694438 ], [ 121.104545415399613, 14.703330404755958 ], [ 121.104583607602564, 14.703165137668723 ], [ 121.104618607602546, 14.703010140300712 ], [ 121.104789396018901, 14.702150476504055 ], [ 121.104816796018909, 14.701990978584501 ], [ 121.10488521604907, 14.701559207055094 ], [ 121.10491191604909, 14.701375309090167 ], [ 121.105033669042982, 14.700290302738498 ], [ 121.105047869042991, 14.70011160382818 ], [ 121.105089506965783, 14.699393292639398 ], [ 121.105097606965813, 14.699171493262398 ], [ 121.105104245151352, 14.698949537824475 ], [ 121.10511824515136, 14.698348638901631 ], [ 121.105121764281478, 14.698144210286836 ], [ 121.105123633010209, 14.697976336317444 ], [ 121.105128830728489, 14.697667159073207 ], [ 121.105130627068931, 14.697524071967806 ], [ 121.105135257004136, 14.696966068703292 ], [ 121.105138536955579, 14.696660564889459 ], [ 121.105139688289455, 14.696544471029458 ], [ 121.105142994628324, 14.696185412942784 ], [ 121.105143662808572, 14.696068765984833 ], [ 121.105145362808585, 14.695316066115639 ], [ 121.10514306120848, 14.694997356765491 ], [ 121.105130646692956, 14.694254104304354 ], [ 121.105126090127825, 14.693587117118428 ], [ 121.105126678988, 14.693468245917781 ], [ 121.105132301582699, 14.693094710421425 ], [ 121.105133269391956, 14.692664278951714 ], [ 121.10511446939195, 14.690883077505545 ], [ 121.10511343472065, 14.690803083541534 ], [ 121.105105734720638, 14.690300282949297 ], [ 121.105103829038669, 14.690196693732076 ], [ 121.105076808189835, 14.688938688068832 ], [ 121.105068867241584, 14.688540284261098 ], [ 121.105043710588802, 14.687896876310589 ], [ 121.105014610588796, 14.68739767407606 ], [ 121.104951799195049, 14.686626195787113 ], [ 121.104925999195046, 14.686379593813006 ], [ 121.10492373306289, 14.686358067394691 ], [ 121.104884033062902, 14.685983264357461 ], [ 121.104810558458439, 14.685390274857044 ], [ 121.104794658458431, 14.685278273645665 ], [ 121.104570311867462, 14.684034854052745 ], [ 121.104418211867468, 14.683341542611442 ], [ 121.104349456151326, 14.683041245829218 ], [ 121.104330656151348, 14.682962444420621 ], [ 121.104050320650913, 14.681932514490407 ], [ 121.103925020650905, 14.681523505253013 ], [ 121.103548785000626, 14.680429887355256 ], [ 121.103357085000624, 14.67992877353225 ], [ 121.103257534458095, 14.679674664093019 ], [ 121.103149934458116, 14.67940635638033 ], [ 121.10289272777797, 14.678799236452848 ], [ 121.102405627777983, 14.677708602076143 ], [ 121.101864669441866, 14.676605499296553 ], [ 121.101853187433292, 14.676584063991696 ], [ 121.101849124400871, 14.676574852665327 ], [ 121.101726725841075, 14.676297585785441 ], [ 121.101255547907641, 14.675177280510457 ], [ 121.101215338687496, 14.67508247760238 ], [ 121.100987838687502, 14.674550561444583 ], [ 121.100888204917126, 14.674322230096777 ], [ 121.100709104917144, 14.673919817453299 ], [ 121.100042864124305, 14.672422951437275 ], [ 121.099991278648034, 14.672306978919172 ], [ 121.099767411504587, 14.671804891093666 ], [ 121.099668131159618, 14.671582282723856 ], [ 121.099478748538075, 14.671172289261303 ], [ 121.099294748538057, 14.670787376427553 ], [ 121.099246134695107, 14.670685698250869 ], [ 121.099211721811827, 14.670613732377134 ], [ 121.099065019025559, 14.670307089387993 ], [ 121.098734320906402, 14.669652234979054 ], [ 121.098719420906406, 14.669624233961082 ], [ 121.09860032673933, 14.669400908642901 ], [ 121.098342567949899, 14.6688935266284 ], [ 121.09779230550555, 14.667894007263316 ], [ 121.097547458967853, 14.667482181226863 ], [ 121.097360236712035, 14.667158549409804 ], [ 121.096675977210978, 14.666103411055133 ], [ 121.096684393532826, 14.666098207208718 ], [ 121.096360593532808, 14.665608086247829 ], [ 121.096179091043538, 14.665338872360943 ], [ 121.095989291043537, 14.665062960222127 ], [ 121.095894623081875, 14.664926740350396 ], [ 121.09582792308187, 14.664831736111609 ], [ 121.095768267037755, 14.664747300461901 ], [ 121.095671567037741, 14.664611294341334 ], [ 121.095562510684033, 14.664459641662322 ], [ 121.095347510684036, 14.664164028154543 ], [ 121.095202676140389, 14.663967794665652 ], [ 121.095017976140383, 14.66372118317617 ], [ 121.094889007785554, 14.663551164903614 ], [ 121.094702007785557, 14.663307753374411 ], [ 121.094617859989128, 14.663199109777457 ], [ 121.094570459989129, 14.66313840687217 ], [ 121.094497475165525, 14.663045587775102 ], [ 121.094344175165531, 14.662851978426831 ], [ 121.094271898479434, 14.662761317058633 ], [ 121.094224298479446, 14.662702014170714 ], [ 121.094091743507349, 14.662538888697576 ], [ 121.093761443507347, 14.66213736884567 ], [ 121.093598130917613, 14.661941762948331 ], [ 121.093475430917607, 14.661796955659577 ], [ 121.093245139928968, 14.661530642572368 ], [ 121.092715739928977, 14.660930711646586 ], [ 121.092308837373778, 14.660485254392828 ], [ 121.091696837373775, 14.659837919708268 ], [ 121.09117211083732, 14.659305941960792 ], [ 121.090308310837315, 14.658466494946293 ], [ 121.089894420987719, 14.658076995763876 ], [ 121.089600420987736, 14.657809080283048 ], [ 121.089386843223537, 14.657617587843115 ], [ 121.089088343223565, 14.657354272398202 ], [ 121.088771816231173, 14.657081599364858 ], [ 121.088183816231151, 14.656586969737189 ], [ 121.088003501267366, 14.656437301270936 ], [ 121.087374401267382, 14.655922070058327 ], [ 121.086752636455842, 14.655435408994729 ], [ 121.086432436455851, 14.655195993959596 ], [ 121.08636882600419, 14.65514865126921 ], [ 121.085989226004173, 14.654867433548448 ], [ 121.085507574072963, 14.654522783251192 ], [ 121.084706917810863, 14.653969604023745 ], [ 121.084603486939088, 14.653896858824828 ], [ 121.084459168077458, 14.653796408320009 ], [ 121.084364068077463, 14.653730904085137 ], [ 121.084160519719561, 14.653592744689766 ], [ 121.083780119719577, 14.653338328081443 ], [ 121.08365846732201, 14.653257677142909 ], [ 121.083119303364967, 14.65290336881349 ], [ 121.083020537604639, 14.652838382037766 ], [ 121.082352058535932, 14.652399040715864 ], [ 121.08209399777067, 14.65222945820226 ], [ 121.081921876336338, 14.652116331015154 ], [ 121.081051996187142, 14.651545289347053 ], [ 121.08103235561498, 14.65153241446572 ], [ 121.08067195561496, 14.651296498961337 ], [ 121.080606323861531, 14.65125540836657 ], [ 121.08049375365718, 14.651174017054513 ], [ 121.080056580141459, 14.650867721621152 ], [ 121.079673180141484, 14.650607504718511 ], [ 121.07930215105506, 14.650362323684046 ], [ 121.07901193919038, 14.650175653220167 ], [ 121.078374899832284, 14.649729557784191 ], [ 121.078312757479594, 14.64968906612348 ], [ 121.07831107833438, 14.649687845078812 ], [ 121.078084470490325, 14.649537006796352 ], [ 121.077104019213877, 14.648880296420474 ], [ 121.07700870253835, 14.648816499647557 ], [ 121.076291807923624, 14.648385677167278 ], [ 121.075250665269948, 14.647694367574191 ], [ 121.07489590198729, 14.647445067111796 ], [ 121.074570331763127, 14.647221584021645 ], [ 121.073315931763091, 14.646380629190171 ], [ 121.07317931249645, 14.646289938138709 ], [ 121.073003436426845, 14.646174337797811 ], [ 121.071505438201811, 14.645189463251754 ], [ 121.07086401641557, 14.64476771850282 ], [ 121.070231790001515, 14.644352113632237 ], [ 121.06912456182603, 14.643624077946095 ], [ 121.068280250194789, 14.642638191323405 ], [ 121.06702767834949, 14.641437646503405 ], [ 121.065659514150312, 14.640361663364049 ], [ 121.064188933766474, 14.639420606115031 ], [ 121.063650521589111, 14.639145304272814 ], [ 121.062391109597201, 14.638154933118024 ], [ 121.06089377024189, 14.63720032260859 ], [ 121.059305538000345, 14.636394878683015 ], [ 121.057642234130157, 14.635746626494342 ], [ 121.055920427718959, 14.635262025057687 ], [ 121.054157270630327, 14.634945902852085 ], [ 121.052370326644834, 14.634801409677852 ], [ 121.050577396497488, 14.634829985250589 ], [ 121.04879634055473, 14.635031344845912 ], [ 121.047044900897447, 14.635403482138416 ], [ 121.045340524582443, 14.635942689206509 ], [ 121.043700189842554, 14.636643593503075 ], [ 121.04214023695711, 14.637499211422311 ], [ 121.040676205477595, 14.638501017927322 ], [ 121.03932267942929, 14.639639031542355 ], [ 121.038093142031968, 14.640901913860386 ], [ 121.036999841385992, 14.642277082571683 ], [ 121.036053668462387, 14.643750836884273 ], [ 121.03598797482185, 14.6438804289978 ] ] ] } }
]
}
