{
"type": "FeatureCollection",
"name": "fw_dijkstra_nodes",
"crs": { "type": "name", "properties": { "name": "urn:ogc:def:crs:OGC:1.3:CRS84" } },
"features": [
{ "type": "Feature", "properties": { "osmid": 7899078672, "y": 1650603.8135833517, "x": 13477378.971533969, "street_count": 3, "highway": null }, "geometry": { "type": "Point", "coordinates": [ 121.069355200000018, 14.6648369 ] } },
{ "type": "Feature", "properties": { "osmid": 5473026085, "y": 1650675.3859977007, "x": 13477558.307233635, "street_count": 3, "highway": null }, "geometry": { "type": "Point", "coordinates": [ 121.0709662, 14.6654589 ] } },
{ "type": "Feature", "properties": { "osmid": 261685360, "y": 1654330.8551680713, "x": 13480109.00412203, "street_count": 3, "highway": null }, "geometry": { "type": "Point", "coordinates": [ 121.093879500000014, 14.6972244 ] } },
{ "type": "Feature", "properties": { "osmid": 6609748131, "y": 1655871.1433905242, "x": 13476464.615500489, "street_count": 4, "highway": "traffic_signals" }, "geometry": { "type": "Point", "coordinates": [ 121.061141399999968, 14.7106079 ] } },
{ "type": "Feature", "properties": { "osmid": 72671422, "y": 1656842.0908258567, "x": 13475684.132286642, "street_count": 4, "highway": null }, "geometry": { "type": "Point", "coordinates": [ 121.054130200000017, 14.719044 ] } },
{ "type": "Feature", "properties": { "osmid": 5654077661, "y": 1654734.0934675194, "x": 13479502.357425002, "street_count": 3, "highway": null }, "geometry": { "type": "Point", "coordinates": [ 121.0884299, 14.7007282 ] } },
{ "type": "Feature", "properties": { "osmid": 8188560933, "y": 1654686.9654198729, "x": 13479464.208235508, "street_count": 3, "highway": "motorway_junction" }, "geometry": { "type": "Point", "coordinates": [ 121.0880872, 14.7003187 ] } },
{ "type": "Feature", "properties": { "osmid": 8310440168, "y": 1653097.0929353475, "x": 13479620.756835409, "street_count": 3, "highway": null }, "geometry": { "type": "Point", "coordinates": [ 121.089493499999975, 14.6865037 ] } },
{ "type": "Feature", "properties": { "osmid": 33452009, "y": 1653159.2013767515, "x": 13479391.227177344, "street_count": 3, "highway": null }, "geometry": { "type": "Point", "coordinates": [ 121.0874316, 14.6870434 ] } },
{ "type": "Feature", "properties": { "osmid": 1371767080, "y": 1654490.4326314181, "x": 13479965.201603824, "street_count": 3, "highway": null }, "geometry": { "type": "Point", "coordinates": [ 121.09258770000001, 14.698611 ] } },
{ "type": "Feature", "properties": { "osmid": 7475593516, "y": 1656215.4093105523, "x": 13476466.708306918, "street_count": 3, "highway": null }, "geometry": { "type": "Point", "coordinates": [ 121.0611602, 14.7135991 ] } },
{ "type": "Feature", "properties": { "osmid": 1371767116, "y": 1653698.3901086352, "x": 13480382.493847011, "street_count": 3, "highway": null }, "geometry": { "type": "Point", "coordinates": [ 121.0963363, 14.6917287 ] } },
{ "type": "Feature", "properties": { "osmid": 261685583, "y": 1653347.8982806685, "x": 13480016.631208569, "street_count": 3, "highway": null }, "geometry": { "type": "Point", "coordinates": [ 121.0930497, 14.6886831 ] } },
{ "type": "Feature", "properties": { "osmid": 261685592, "y": 1653806.7517174613, "x": 13479396.158630785, "street_count": 3, "highway": null }, "geometry": { "type": "Point", "coordinates": [ 121.0874759, 14.6926703 ] } },
{ "type": "Feature", "properties": { "osmid": 681700006, "y": 1654020.3805856651, "x": 13479399.921229575, "street_count": 3, "highway": null }, "geometry": { "type": "Point", "coordinates": [ 121.087509700000012, 14.6945266 ] } },
{ "type": "Feature", "properties": { "osmid": 8723530092, "y": 1658531.4431259765, "x": 13475548.177792534, "street_count": 3, "highway": null }, "geometry": { "type": "Point", "coordinates": [ 121.0529089, 14.7337212 ] } },
{ "type": "Feature", "properties": { "osmid": 260904405, "y": 1658515.3630570846, "x": 13475497.560820071, "street_count": 3, "highway": null }, "geometry": { "type": "Point", "coordinates": [ 121.0524542, 14.7335815 ] } },
{ "type": "Feature", "properties": { "osmid": 11438503890, "y": 1650791.0989999545, "x": 13476576.903470853, "street_count": 3, "highway": null }, "geometry": { "type": "Point", "coordinates": [ 121.0621501, 14.6664645 ] } },
{ "type": "Feature", "properties": { "osmid": 261685749, "y": 1652931.5287138803, "x": 13479284.950459482, "street_count": 3, "highway": null }, "geometry": { "type": "Point", "coordinates": [ 121.0864769, 14.685065 ] } },
{ "type": "Feature", "properties": { "osmid": 1832657401, "y": 1650012.4514127844, "x": 13478131.413368085, "street_count": 3, "highway": "traffic_signals" }, "geometry": { "type": "Point", "coordinates": [ 121.076114499999989, 14.6596976 ] } },
{ "type": "Feature", "properties": { "osmid": 26082601, "y": 1649767.1103180374, "x": 13477920.930474896, "street_count": 4, "highway": "traffic_signals" }, "geometry": { "type": "Point", "coordinates": [ 121.0742237, 14.6575654 ] } },
{ "type": "Feature", "properties": { "osmid": 6609977857, "y": 1651826.0152690366, "x": 13478736.034050383, "street_count": 3, "highway": null }, "geometry": { "type": "Point", "coordinates": [ 121.0815459, 14.6754582 ] } },
{ "type": "Feature", "properties": { "osmid": 127482694, "y": 1651378.4174223403, "x": 13478390.231184181, "street_count": 3, "highway": null }, "geometry": { "type": "Point", "coordinates": [ 121.0784395, 14.6715685 ] } },
{ "type": "Feature", "properties": { "osmid": 11568439828, "y": 1657837.0513730631, "x": 13476476.159331683, "street_count": 4, "highway": null }, "geometry": { "type": "Point", "coordinates": [ 121.061245099999979, 14.7276884 ] } },
{ "type": "Feature", "properties": { "osmid": 8655323690, "y": 1658750.6948005701, "x": 13477400.779022215, "street_count": 3, "highway": null }, "geometry": { "type": "Point", "coordinates": [ 121.0695511, 14.735626 ] } },
{ "type": "Feature", "properties": { "osmid": 8374846113, "y": 1658326.028790798, "x": 13476463.825132105, "street_count": 3, "highway": null }, "geometry": { "type": "Point", "coordinates": [ 121.0611343, 14.7319366 ] } },
{ "type": "Feature", "properties": { "osmid": 5536826882, "y": 1658644.0614493364, "x": 13476472.11843417, "street_count": 3, "highway": null }, "geometry": { "type": "Point", "coordinates": [ 121.0612088, 14.7346996 ] } },
{ "type": "Feature", "properties": { "osmid": 32425339, "y": 1658435.4808347481, "x": 13475276.480311355, "street_count": 4, "highway": null }, "geometry": { "type": "Point", "coordinates": [ 121.0504682, 14.7328875 ] } },
{ "type": "Feature", "properties": { "osmid": 5880308679, "y": 1651439.7506414696, "x": 13476935.162988072, "street_count": 3, "highway": null }, "geometry": { "type": "Point", "coordinates": [ 121.0653684, 14.6721015 ] } },
{ "type": "Feature", "properties": { "osmid": 8646595564, "y": 1651424.250468608, "x": 13477041.072351614, "street_count": 3, "highway": null }, "geometry": { "type": "Point", "coordinates": [ 121.066319799999988, 14.6719668 ] } },
{ "type": "Feature", "properties": { "osmid": 5684208691, "y": 1652021.8483021627, "x": 13478897.057693813, "street_count": 3, "highway": null }, "geometry": { "type": "Point", "coordinates": [ 121.0829924, 14.67716 ] } },
{ "type": "Feature", "properties": { "osmid": 6626911460, "y": 1650270.1530353141, "x": 13476238.458822994, "street_count": 2, "highway": null }, "geometry": { "type": "Point", "coordinates": [ 121.0591098, 14.6619372 ] } },
{ "type": "Feature", "properties": { "osmid": 8451990863, "y": 1655112.4790762633, "x": 13478997.512402304, "street_count": 3, "highway": null }, "geometry": { "type": "Point", "coordinates": [ 121.083894799999982, 14.704016 ] } },
{ "type": "Feature", "properties": { "osmid": 24620306, "y": 1655058.916876487, "x": 13479074.690205272, "street_count": 3, "highway": null }, "geometry": { "type": "Point", "coordinates": [ 121.0845881, 14.7035506 ] } },
{ "type": "Feature", "properties": { "osmid": 206091269, "y": 1655631.9485686508, "x": 13476632.006618796, "street_count": 4, "highway": null }, "geometry": { "type": "Point", "coordinates": [ 121.0626451, 14.7085296 ] } },
{ "type": "Feature", "properties": { "osmid": 12108604896, "y": 1655387.3698161072, "x": 13477497.126041496, "street_count": 3, "highway": null }, "geometry": { "type": "Point", "coordinates": [ 121.0704166, 14.7064045 ] } },
{ "type": "Feature", "properties": { "osmid": 249205004, "y": 1655344.8556403173, "x": 13477629.429256305, "street_count": 4, "highway": "traffic_signals" }, "geometry": { "type": "Point", "coordinates": [ 121.071605100000014, 14.7060351 ] } },
{ "type": "Feature", "properties": { "osmid": 5536826850, "y": 1656550.2881772132, "x": 13476466.752834713, "street_count": 4, "highway": null }, "geometry": { "type": "Point", "coordinates": [ 121.0611606, 14.7165087 ] } },
{ "type": "Feature", "properties": { "osmid": 5536826853, "y": 1657305.4278712964, "x": 13476467.031133439, "street_count": 4, "highway": null }, "geometry": { "type": "Point", "coordinates": [ 121.061163099999987, 14.7230696 ] } },
{ "type": "Feature", "properties": { "osmid": 5400621023, "y": 1658722.447968432, "x": 13476710.17516523, "street_count": 4, "highway": null }, "geometry": { "type": "Point", "coordinates": [ 121.0633473, 14.7353806 ] } },
{ "type": "Feature", "properties": { "osmid": 256214614, "y": 1659347.7187251751, "x": 13475909.353880413, "street_count": 3, "highway": null }, "geometry": { "type": "Point", "coordinates": [ 121.0561534, 14.7408127 ] } },
{ "type": "Feature", "properties": { "osmid": 12069045896, "y": 1650416.5985992891, "x": 13477933.309202271, "street_count": 3, "highway": null }, "geometry": { "type": "Point", "coordinates": [ 121.0743349, 14.6632099 ] } },
{ "type": "Feature", "properties": { "osmid": 127485665, "y": 1652373.3343282642, "x": 13479049.543132301, "street_count": 3, "highway": null }, "geometry": { "type": "Point", "coordinates": [ 121.084362199999987, 14.6802144 ] } },
{ "type": "Feature", "properties": { "osmid": 31393720, "y": 1658445.1840940004, "x": 13475845.456492696, "street_count": 3, "highway": null }, "geometry": { "type": "Point", "coordinates": [ 121.055579399999971, 14.7329718 ] } },
{ "type": "Feature", "properties": { "osmid": 72673632, "y": 1657469.5131128635, "x": 13475829.304034583, "street_count": 4, "highway": null }, "geometry": { "type": "Point", "coordinates": [ 121.055434299999988, 14.7244952 ] } },
{ "type": "Feature", "properties": { "osmid": 33466356, "y": 1650988.5234549083, "x": 13478009.017587958, "street_count": 3, "highway": null }, "geometry": { "type": "Point", "coordinates": [ 121.075015, 14.6681802 ] } },
{ "type": "Feature", "properties": { "osmid": 4320807091, "y": 1655429.4467214542, "x": 13476857.328400111, "street_count": 3, "highway": null }, "geometry": { "type": "Point", "coordinates": [ 121.064669199999983, 14.7067701 ] } },
{ "type": "Feature", "properties": { "osmid": 5475547313, "y": 1650416.2994246441, "x": 13477086.457308009, "street_count": 3, "highway": null }, "geometry": { "type": "Point", "coordinates": [ 121.066727499999971, 14.6632073 ] } },
{ "type": "Feature", "properties": { "osmid": 1137212632, "y": 1650265.2281894651, "x": 13476881.51812546, "street_count": 3, "highway": null }, "geometry": { "type": "Point", "coordinates": [ 121.0648865, 14.6618944 ] } },
{ "type": "Feature", "properties": { "osmid": 251588254, "y": 1655245.0385308911, "x": 13478372.308746163, "street_count": 3, "highway": null }, "geometry": { "type": "Point", "coordinates": [ 121.0782785, 14.7051678 ] } },
{ "type": "Feature", "properties": { "osmid": 25629724, "y": 1659080.4852511529, "x": 13476220.102238962, "street_count": 3, "highway": null }, "geometry": { "type": "Point", "coordinates": [ 121.0589449, 14.7384911 ] } },
{ "type": "Feature", "properties": { "osmid": 10125282898, "y": 1655577.2458627087, "x": 13479695.574665172, "street_count": 3, "highway": null }, "geometry": { "type": "Point", "coordinates": [ 121.0901656, 14.7080543 ] } },
{ "type": "Feature", "properties": { "osmid": 1688073659, "y": 1657956.2849247067, "x": 13475959.213880338, "street_count": 3, "highway": null }, "geometry": { "type": "Point", "coordinates": [ 121.0566013, 14.7287243 ] } },
{ "type": "Feature", "properties": { "osmid": 261684629, "y": 1655033.9081789898, "x": 13479556.581148967, "street_count": 3, "highway": null }, "geometry": { "type": "Point", "coordinates": [ 121.088917, 14.7033333 ] } }
]
}
