{
"type": "FeatureCollection",
"name": "fw_jps_buffer",
"crs": { "type": "name", "properties": { "name": "urn:ogc:def:crs:OGC:1.3:CRS84" } },
"features": [
{ "type": "Feature", "properties": { }, "geometry": { "type": "Polygon", "coordinates": [ [ [ 121.050914327691615, 14.741204641372004 ], [ 121.051567524148965, 14.741777176956626 ], [ 121.05227560366481, 14.742285037362629 ], [ 121.05303174704629, 14.742723332084754 ], [ 121.053172986338168, 14.742787934073542 ], [ 121.053211410102705, 14.742810206185945 ], [ 121.05400833527581, 14.743174714492486 ], [ 121.054838367415357, 14.743461926522125 ], [ 121.054899821498424, 14.743476813138635 ], [ 121.055107862000824, 14.743548800328895 ], [ 121.055963007443566, 14.74375595030045 ], [ 121.056835030671436, 14.743881043591717 ], [ 121.057715533624105, 14.743922875627952 ], [ 121.061039300175338, 14.743922875627952 ], [ 121.061919803127978, 14.743881043591717 ], [ 121.062791826355863, 14.74375595030045 ], [ 121.063646971798605, 14.743548800328895 ], [ 121.064477003938109, 14.743261588413906 ], [ 121.065273929111129, 14.74289708025287 ], [ 121.066030072492623, 14.742458785880469 ], [ 121.066738152008483, 14.741950925879699 ], [ 121.067391348465833, 14.741378390751889 ], [ 121.067481179994246, 14.741291516079238 ], [ 121.068073202754192, 14.740659818911896 ], [ 121.068598350313906, 14.739975043035725 ], [ 121.069051565215318, 14.739243782748771 ], [ 121.069428482751164, 14.738473080056085 ], [ 121.069725472999551, 14.737670356867964 ], [ 121.06993967578201, 14.736843343537405 ], [ 121.070069028208664, 14.736000004424492 ], [ 121.070112284544948, 14.735148461204121 ], [ 121.070112284544948, 14.715078917833202 ], [ 121.070651273715441, 14.715078917833202 ], [ 121.071531776668095, 14.715037080260252 ], [ 121.07240379989598, 14.714911970412224 ], [ 121.07325894533875, 14.714704793023586 ], [ 121.073466985841009, 14.714632796305679 ], [ 121.073528439923848, 14.714617907718949 ], [ 121.073736480426206, 14.714545910972339 ], [ 121.073797934509201, 14.714531022379649 ], [ 121.074005975011445, 14.714459025604398 ], [ 121.074067429094313, 14.71444413700581 ], [ 121.074275469596515, 14.714372140201908 ], [ 121.074336923679539, 14.714357251597354 ], [ 121.074544964181868, 14.714285254764734 ], [ 121.074606418264921, 14.714270366154246 ], [ 121.074814458767236, 14.71419836929296 ], [ 121.074875912850018, 14.714183480676601 ], [ 121.075083953352305, 14.714111483786654 ], [ 121.075145407435301, 14.714096595164321 ], [ 121.07535344793753, 14.714024598245711 ], [ 121.075414902020583, 14.714009709617439 ], [ 121.075840209990773, 14.713862522505064 ], [ 121.081431057124831, 14.713862522505064 ], [ 121.082311560077471, 14.71382068469886 ], [ 121.083183583305342, 14.713695574153308 ], [ 121.083280303260892, 14.713672141541618 ], [ 121.083722572475835, 14.713608688446749 ], [ 121.084080185659133, 14.713522048462645 ], [ 121.08408189858973, 14.713521802705531 ], [ 121.084439511772686, 14.713435162686997 ], [ 121.084441224703056, 14.713434916929817 ], [ 121.085296370145784, 14.713227738138633 ], [ 121.085504410647985, 14.71315574093334 ], [ 121.085565864730782, 14.713140852245834 ], [ 121.085773905233268, 14.713068855011787 ], [ 121.085835359316363, 14.713053966318272 ], [ 121.086665391455867, 14.71276671421694 ], [ 121.087462316628915, 14.712402155055464 ], [ 121.087500740393608, 14.712379879835671 ], [ 121.087641979685614, 14.71231526883391 ], [ 121.087680403450364, 14.712292993605212 ], [ 121.087821642742426, 14.712228382577708 ], [ 121.087860066507133, 14.712206107340164 ], [ 121.088001305799423, 14.712141496286819 ], [ 121.088039729564017, 14.712119221040476 ], [ 121.088180968855895, 14.712054609961601 ], [ 121.088937112237375, 14.711616253568438 ], [ 121.089064572406343, 14.7115248217195 ], [ 121.089206606822827, 14.711442480464628 ], [ 121.089334066991654, 14.711351048542987 ], [ 121.089476101408138, 14.711268707222557 ], [ 121.090184180923984, 14.710760774550408 ], [ 121.090837377381334, 14.710188157499582 ], [ 121.092454344892744, 14.708624184351041 ], [ 121.09304636765269, 14.707992392523707 ], [ 121.093571515212403, 14.707307514038163 ], [ 121.093687697789576, 14.707120026096623 ], [ 121.093840529606055, 14.706914930507857 ], [ 121.094316735821195, 14.706105354358082 ], [ 121.094405098205002, 14.705934418901935 ], [ 121.09465355081268, 14.705533479407412 ], [ 121.094720352022833, 14.705396866613983 ], [ 121.094743382341093, 14.705359701460905 ], [ 121.095120299876953, 14.704588878999386 ], [ 121.095222126475406, 14.70431361348105 ], [ 121.095299962933936, 14.704154431993651 ], [ 121.095596953182252, 14.703351582469722 ], [ 121.095612346628656, 14.703292140821308 ], [ 121.095686784710566, 14.70309091289336 ], [ 121.095702178156998, 14.703031471173889 ], [ 121.095776616238979, 14.702830243005511 ], [ 121.095792009685397, 14.702770801215083 ], [ 121.095866447767378, 14.702569572806478 ], [ 121.095897234660242, 14.70245068906763 ], [ 121.096046110824247, 14.702048231474764 ], [ 121.096260313606706, 14.701221083055492 ], [ 121.09638966603336, 14.700377606194776 ], [ 121.096430962806352, 14.699564506183625 ], [ 121.096479497561774, 14.699248020398786 ], [ 121.096522753898057, 14.698396333693433 ], [ 121.096522753898057, 14.693530339896132 ], [ 121.096479497561774, 14.692678630899676 ], [ 121.096432922369644, 14.692374913485228 ], [ 121.096432922369644, 14.688751133361924 ], [ 121.09638966603336, 14.687899405739683 ], [ 121.096327934358911, 14.687496843819012 ], [ 121.096299834504947, 14.686943548167154 ], [ 121.096170482078293, 14.686100016188096 ], [ 121.096146254990643, 14.686006456122566 ], [ 121.096080650549879, 14.685578635556904 ], [ 121.095991073110667, 14.68523270475294 ], [ 121.095990819021452, 14.685231047778595 ], [ 121.095776616238979, 14.684403835695083 ], [ 121.095702178156998, 14.684202590370608 ], [ 121.095686784710566, 14.684143143512401 ], [ 121.095612346628656, 14.683941897948184 ], [ 121.095596953182252, 14.683882451019183 ], [ 121.095522515100228, 14.683681205214658 ], [ 121.095507121653768, 14.683621758214564 ], [ 121.095432683571786, 14.68342051217032 ], [ 121.095417290125354, 14.683361065099458 ], [ 121.095120299876953, 14.682558139169805 ], [ 121.095069550181066, 14.682454341854365 ], [ 121.094850805291728, 14.681862953457276 ], [ 121.094772968833226, 14.681703755613857 ], [ 121.094671142234887, 14.681428461264632 ], [ 121.094488382555554, 14.681054664467418 ], [ 121.094401647649732, 14.680820170744902 ], [ 121.094323811191273, 14.680660972142499 ], [ 121.094221984592863, 14.680385676480421 ], [ 121.09393430169257, 14.679797278029284 ], [ 121.093862658479139, 14.679603584629076 ], [ 121.093679898799778, 14.679229784712836 ], [ 121.093593163893857, 14.678995289033448 ], [ 121.093410404214524, 14.678621488077704 ], [ 121.09332366930866, 14.678386991746365 ], [ 121.093245832850258, 14.678227791372972 ], [ 121.09314400625189, 14.677952492648478 ], [ 121.093066169793588, 14.677793291959043 ], [ 121.092964343195121, 14.677517992687426 ], [ 121.09278158351573, 14.677144189206972 ], [ 121.092694848609895, 14.67690969129197 ], [ 121.092512088930405, 14.676535886771893 ], [ 121.092425354024485, 14.676301388204628 ], [ 121.092242594345194, 14.675927582645601 ], [ 121.092155859439401, 14.675693083426635 ], [ 121.0920780229809, 14.675533881092555 ], [ 121.091976196382504, 14.675258578977786 ], [ 121.091599278846644, 14.674487650345055 ], [ 121.09157624852854, 14.674450479935686 ], [ 121.091509447318487, 14.674313847711982 ], [ 121.091486417000212, 14.67427667727282 ], [ 121.091419615789903, 14.674140044940076 ], [ 121.091410137981427, 14.674124747949321 ], [ 121.091347375683569, 14.673955060453959 ], [ 121.090970458147652, 14.673184127228282 ], [ 121.090947427829391, 14.673146956597305 ], [ 121.090880626619395, 14.673010323559685 ], [ 121.090427411717982, 14.672278838923324 ], [ 121.090425952876728, 14.672276936047295 ], [ 121.090157917132728, 14.671844327694558 ], [ 121.089632769572987, 14.671159335926349 ], [ 121.089616259205926, 14.671141713481299 ], [ 121.089363274988315, 14.670811725234781 ], [ 121.088771252228497, 14.670179824094907 ], [ 121.088681420700084, 14.670092921084668 ], [ 121.088668765832381, 14.670080678764339 ], [ 121.088630781149732, 14.670019371112911 ], [ 121.088536250245852, 14.669896066059566 ], [ 121.088451118092834, 14.669758661787453 ], [ 121.087925970533064, 14.669073663491382 ], [ 121.087781743896201, 14.668919720760423 ], [ 121.08756664441961, 14.668639145899395 ], [ 121.087550134052393, 14.668621523251275 ], [ 121.087297149834455, 14.668291531204693 ], [ 121.087280639467238, 14.668273908528569 ], [ 121.087027655249102, 14.667943915957691 ], [ 121.086883428612254, 14.667789972432194 ], [ 121.086668329135478, 14.667509396122865 ], [ 121.086396386228699, 14.667219131114598 ], [ 121.086219171493354, 14.666987971182463 ], [ 121.085627148733408, 14.666356059003739 ], [ 121.082123719125349, 14.662966756837863 ], [ 121.081470522667971, 14.662394014582087 ], [ 121.08118049459776, 14.662185919914991 ], [ 121.08102136502599, 14.662046389971588 ], [ 121.080680255295107, 14.661801643887317 ], [ 121.080662038912095, 14.661785671151346 ], [ 121.080320929181639, 14.661540924776023 ], [ 121.080302712798641, 14.66152495202104 ], [ 121.079594633282781, 14.661016903759801 ], [ 121.079331651823182, 14.660864410927894 ], [ 121.078696317998478, 14.660408556503668 ], [ 121.078433336539064, 14.660256063248312 ], [ 121.07779800271453, 14.65980020755797 ], [ 121.077655968298032, 14.659717846819369 ], [ 121.077528508129234, 14.659626393263078 ], [ 121.077081317507151, 14.659367082914571 ], [ 121.077079350487466, 14.659365671562306 ], [ 121.076937316070854, 14.659283310660236 ], [ 121.076809855901971, 14.659191856922458 ], [ 121.076667821485529, 14.659109495955118 ], [ 121.07654036131656, 14.65901804214471 ], [ 121.076419414273474, 14.658947908980213 ], [ 121.075911540618108, 14.658583504597448 ], [ 121.07546434999513, 14.658324193013767 ], [ 121.075462382975246, 14.658322781654633 ], [ 121.075174779815114, 14.658156009589016 ], [ 121.075027028380958, 14.658013067000999 ], [ 121.07437383192358, 14.657440311790916 ], [ 121.073665752407734, 14.656932254055222 ], [ 121.072909609026226, 14.656493787133366 ], [ 121.072112683853177, 14.65612913413066 ], [ 121.07208625209698, 14.656119984425024 ], [ 121.071831630685182, 14.655972335964117 ], [ 121.071034705512162, 14.6556076820935 ], [ 121.070204673372658, 14.655320354510023 ], [ 121.069349527929944, 14.655113120644058 ], [ 121.068477504702059, 14.654987976500397 ], [ 121.067597001749419, 14.654946127426797 ], [ 121.066716498796794, 14.654987976500397 ], [ 121.065844475568909, 14.655113120644058 ], [ 121.064989330126195, 14.655320354510023 ], [ 121.064159297986691, 14.6556076820935 ], [ 121.063362372813671, 14.655972335964117 ], [ 121.062606229432191, 14.656410803929599 ], [ 121.061898149916331, 14.656918862874592 ], [ 121.061244953458981, 14.657491619448024 ], [ 121.060652930699035, 14.658123557206661 ], [ 121.060127783139293, 14.658808589760049 ], [ 121.059674568237881, 14.659540119404433 ], [ 121.059297650702021, 14.660311100680111 ], [ 121.059000660453648, 14.661114108239579 ], [ 121.058786457671161, 14.661941408372138 ], [ 121.058657105244507, 14.662785033495657 ], [ 121.058613848908223, 14.66363685889754 ], [ 121.058613848908223, 14.663723764470699 ], [ 121.058657105244507, 14.664575586220673 ], [ 121.058786457671147, 14.66541920119527 ], [ 121.059000660453592, 14.666246485062292 ], [ 121.059297650701964, 14.667049470855201 ], [ 121.05967456823781, 14.667820425690612 ], [ 121.060127783139222, 14.668551925228295 ], [ 121.060652930698907, 14.669236925157167 ], [ 121.060797157335784, 14.669390867665046 ], [ 121.061012256812646, 14.669671441562812 ], [ 121.061604279572592, 14.670303344170518 ], [ 121.06225747602997, 14.670876065733966 ], [ 121.06296555554583, 14.671384091116039 ], [ 121.06372169892731, 14.671822528220634 ], [ 121.064297235726528, 14.67208586063375 ], [ 121.06450326424023, 14.672266504781092 ], [ 121.065211343756047, 14.672774526935314 ], [ 121.065967487137556, 14.673212961254119 ], [ 121.066363857037302, 14.673394316119106 ], [ 121.066468985153946, 14.67346974153196 ], [ 121.066611019570416, 14.673552097097026 ], [ 121.066738479739328, 14.673643544836063 ], [ 121.066880514155656, 14.67372590033562 ], [ 121.067007974324397, 14.673817348001915 ], [ 121.067150008740626, 14.673899703435996 ], [ 121.06727746890941, 14.673991151029668 ], [ 121.067703572158919, 14.674238217043175 ], [ 121.067718982879853, 14.674249273606476 ], [ 121.067737199262879, 14.674265245433009 ], [ 121.068445278778725, 14.674773262946728 ], [ 121.068566225822138, 14.674843391041641 ], [ 121.069074099478016, 14.67520776835952 ], [ 121.069216133894329, 14.675290123270296 ], [ 121.069343594063085, 14.675381570282807 ], [ 121.069606575522613, 14.675534053001577 ], [ 121.069823857901582, 14.675689943265503 ], [ 121.069982987473338, 14.675829464511862 ], [ 121.070093914090734, 14.675909049241259 ], [ 121.072248760606229, 14.677993582587051 ], [ 121.072331029392686, 14.678100889104259 ], [ 121.072592355171011, 14.678379807793601 ], [ 121.072709594220896, 14.678538010221379 ], [ 121.072981258432748, 14.678866507269509 ], [ 121.073166556510841, 14.679105507388263 ], [ 121.07327914697899, 14.679231088026096 ], [ 121.073623520171495, 14.679680265065643 ], [ 121.073776959102261, 14.679928445316198 ], [ 121.073956622159088, 14.680189142523432 ], [ 121.074052766098347, 14.680314751534141 ], [ 121.074136285216113, 14.680449839420207 ], [ 121.074315948272925, 14.680710536005941 ], [ 121.074843332584379, 14.681399544370681 ], [ 121.075290492378855, 14.681877051223694 ], [ 121.075328052479406, 14.681949718585614 ], [ 121.075377494287778, 14.682083387220803 ], [ 121.075455330746209, 14.682242584787691 ], [ 121.075557157344605, 14.68251787811209 ], [ 121.075739917023967, 14.682891672408278 ], [ 121.075826651929802, 14.683126163909488 ], [ 121.07600941160922, 14.683499957165946 ], [ 121.076096146515113, 14.683734448015002 ], [ 121.076255913952664, 14.684061215008812 ], [ 121.076292738990475, 14.684167091703808 ], [ 121.076432131421498, 14.684471251793411 ], [ 121.076545304157051, 14.684777216829684 ], [ 121.076603269033583, 14.684895769943074 ], [ 121.076652065104312, 14.685036064342585 ], [ 121.076892366639328, 14.685560409951439 ], [ 121.076921559689552, 14.685644343134356 ], [ 121.077193395421261, 14.686237495621885 ], [ 121.077263956384385, 14.686428257281925 ], [ 121.077525526383255, 14.686963230801451 ], [ 121.077550380388445, 14.687034688303179 ], [ 121.07766878877338, 14.687293056968389 ], [ 121.077730043445285, 14.687469169355012 ], [ 121.077970344980272, 14.687993509127887 ], [ 121.077999538030696, 14.688077441377128 ], [ 121.078104739171906, 14.688306990581545 ], [ 121.078341934725387, 14.688948242352229 ], [ 121.078390256777595, 14.689047071523079 ], [ 121.07839768486248, 14.689075756875432 ], [ 121.078420041495107, 14.689515962372175 ], [ 121.078466616687251, 14.689819683759973 ], [ 121.078466616687251, 14.693443446164791 ], [ 121.078509873023535, 14.69429515218002 ], [ 121.078556448215693, 14.694598866925325 ], [ 121.078556448215693, 14.696484706199206 ], [ 121.074244534851914, 14.696484706199206 ], [ 121.07336403189926, 14.696526547327759 ], [ 121.072492008671375, 14.696651667712661 ], [ 121.072134395488277, 14.696738314391991 ], [ 121.072132682557836, 14.696738560167981 ], [ 121.071277537115165, 14.696945754607475 ], [ 121.071069496612807, 14.697017757158726 ], [ 121.071008042529655, 14.697032646945901 ], [ 121.070800002027298, 14.697104649468528 ], [ 121.070738547944273, 14.697119539249748 ], [ 121.070530507442172, 14.697191541743651 ], [ 121.070469053359304, 14.697206431518913 ], [ 121.069639021219771, 14.697493704094338 ], [ 121.069536852824342, 14.697540444988563 ], [ 121.069480906546715, 14.697554000250211 ], [ 121.069272866044471, 14.697626002600934 ], [ 121.069211411961604, 14.697640892346582 ], [ 121.069037166294322, 14.697701198358436 ], [ 121.065261382010718, 14.697701198358436 ], [ 121.064380879058078, 14.697743039253979 ], [ 121.063508855830221, 14.697868158942091 ], [ 121.063151242647123, 14.697954805138888 ], [ 121.063149529716739, 14.697955050913496 ], [ 121.062294384274097, 14.698162244199104 ], [ 121.062086343771611, 14.698234246349411 ], [ 121.06202488968853, 14.698249136053642 ], [ 121.061194857549026, 14.698536407257748 ], [ 121.060397932376006, 14.698900989574479 ], [ 121.059641788994512, 14.699339371499676 ], [ 121.058933709478652, 14.699847330745436 ], [ 121.058280513021302, 14.70041997491963 ], [ 121.057561860794024, 14.70111510160153 ], [ 121.056969838034078, 14.701746913330933 ], [ 121.056792623298733, 14.701978036516625 ], [ 121.056520680392097, 14.702268255381799 ], [ 121.056267696173961, 14.702598196148221 ], [ 121.056251185806843, 14.702615816057676 ], [ 121.056149740554034, 14.70274812030407 ], [ 121.05562236510788, 14.703310935749801 ], [ 121.05540726563126, 14.703591466115807 ], [ 121.055263038994383, 14.703745384433345 ], [ 121.055047939517493, 14.704025914241512 ], [ 121.054903712880574, 14.704179832252867 ], [ 121.054688613403826, 14.704460361502619 ], [ 121.054544386767006, 14.704614279207609 ], [ 121.054291402549083, 14.704944216428638 ], [ 121.054274892181908, 14.704961836148826 ], [ 121.053749744622138, 14.70564672199364 ], [ 121.053296529720697, 14.7063780949641 ], [ 121.052919612184809, 14.707148911108128 ], [ 121.052622621936408, 14.707951746667417 ], [ 121.052408419153906, 14.708778869586842 ], [ 121.052375489888931, 14.70899358565349 ], [ 121.052318587625479, 14.709213307388943 ], [ 121.052189235198824, 14.710056750113402 ], [ 121.052145978862555, 14.710908391332859 ], [ 121.052145978862555, 14.727779554195116 ], [ 121.051477692620551, 14.728258904245914 ], [ 121.050824496163202, 14.728831473853504 ], [ 121.050232473403256, 14.729463205319417 ], [ 121.049707325843514, 14.730148014237779 ], [ 121.049254110942101, 14.730879305056483 ], [ 121.048877193406241, 14.731650034613955 ], [ 121.04858020315784, 14.732452779985204 ], [ 121.048366000375381, 14.733279809983195 ], [ 121.048236647948698, 14.734123159626296 ], [ 121.048193391612443, 14.734974706854343 ], [ 121.048236647948698, 14.735826250753913 ], [ 121.048366000375381, 14.736669590539512 ], [ 121.04858020315784, 14.737496604529774 ], [ 121.048877193406241, 14.738299328358258 ], [ 121.049254110942101, 14.739070031665788 ], [ 121.049707325843514, 14.739801292536152 ], [ 121.050232473403256, 14.740486068958671 ], [ 121.050824496163202, 14.741117766630033 ], [ 121.050914327691615, 14.741204641372004 ] ] ] } }
]
}
