{"type": "FeatureCollection", "features": [{"type": "Feature", "geometry": {"type": "LineString", "coordinates": [[13469893.2498, 1645235.7276], [13469903.2498, 1645245.7276], [13469913.2498, 1645255.7276], [13469923.2498, 1645265.7276], [13469933.2498, 1645275.7276], [13469943.2498, 1645285.7276], [13469953.2498, 1645295.7276], [13469963.2498, 1645305.7276], [13469973.2498, 1645315.7276], [13469983.2498, 1645325.7276], [13469993.2498, 1645335.7276], [13470003.2498, 1645345.7276], [13470013.2498, 1645355.7276], [13470023.2498, 1645365.7276], [13470033.2498, 1645375.7276], [13470043.2498, 1645385.7276], [13470053.2498, 1645395.7276], [13470063.2498, 1645405.7276], [13470073.2498, 1645415.7276], [13470083.2498, 1645425.7276], [13470093.2498, 1645435.7276], [13470103.2498, 1645445.7276], [13470113.2498, 1645455.7276], [13470123.2498, 1645455.7276], [13470133.2498, 1645465.7276], [13470143.2498, 1645475.7276], [13470153.2498, 1645485.7276], [13470163.2498, 1645495.7276], [13470173.2498, 1645505.7276], [13470183.2498, 1645515.7276], [13470193.2498, 1645525.7276], [13470203.2498, 1645535.7276], [13470213.2498, 1645545.7276], [13470223.2498, 1645555.7276], [13470233.2498, 1645565.7276], [13470243.2498, 1645575.7276], [13470253.2498, 1645585.7276], [13470263.2498, 1645595.7276], [13470273.2498, 1645605.7276], [13470283.2498, 1645615.7276], [13470293.2498, 1645625.7276], [13470303.2498, 1645635.7276], [13470313.2498, 1645635.7276], [13470323.2498, 1645645.7276], [13470333.2498, 1645655.7276], [13470343.2498, 1645665.7276], [13470353.2498, 1645675.7276], [13470363.2498, 1645685.7276], [13470373.2498, 1645695.7276], [13470383.2498, 1645705.7276], [13470393.2498, 1645715.7276], [13470403.2498, 1645725.7276], [13470413.2498, 1645735.7276], [13470423.2498, 1645745.7276], [13470433.2498, 1645755.7276], [13470443.2498, 1645765.7276], [13470453.2498, 1645775.7276], [13470463.2498, 1645785.7276], [13470473.2498, 1645795.7276], [13470483.2498, 1645805.7276], [13470493.2498, 1645805.7276], [13470503.2498, 1645815.7276], [13470513.2498, 1645825.7276], [13470523.2498, 1645835.7276], [13470533.2498, 1645845.7276], [13470543.2498, 1645855.7276], [13470553.2498, 1645865.7276], [13470563.2498, 1645875.7276], [13470573.2498, 1645885.7276], [13470583.2498, 1645895.7276], [13470593.2498, 1645905.7276], [13470603.2498, 1645915.7276], [13470613.2498, 1645925.7276], [13470623.2498, 1645935.7276], [13470633.2498, 1645945.7276], [13470643.2498, 1645955.7276], [13470653.2498, 1645965.7276], [13470663.2498, 1645965.7276], [13470673.2498, 1645975.7276], [13470683.2498, 1645985.7276], [13470693.2498, 1645995.7276], [13470703.2498, 1646005.7276], [13470713.2498, 1646015.7276], [13470723.2498, 1646025.7276], [13470733.2498, 1646035.7276], [13470743.2498, 1646045.7276], [13470753.2498, 1646055.7276], [13470763.2498, 1646065.7276], [13470773.2498, 1646075.7276], [13470783.2498, 1646075.7276], [13470793.2498, 1646085.7276], [13470803.2498, 1646095.7276], [13470813.2498, 1646105.7276], [13470823.2498, 1646115.7276], [13470833.2498, 1646125.7276], [13470843.2498, 1646135.7276], [13470853.2498, 1646145.7276], [13470863.2498, 1646155.7276], [13470873.2498, 1646165.7276], [13470883.2498, 1646175.7276], [13470893.2498, 1646185.7276], [13470903.2498, 1646195.7276], [13470913.2498, 1646205.7276], [13470923.2498, 1646215.7276], [13470933.2498, 1646225.7276], [13470943.2498, 1646225.7276], [13470953.2498, 1646235.7276], [13470963.2498, 1646245.7276], [13470973.2498, 1646255.7276], [13470983.2498, 1646265.7276], [13470993.2498, 1646275.7276], [13471003.2498, 1646285.7276], [13471013.2498, 1646295.7276], [13471023.2498, 1646305.7276], [13471033.2498, 1646315.7276], [13471043.2498, 1646325.7276], [13471053.2498, 1646335.7276], [13471063.2498, 1646345.7276], [13471073.2498, 1646355.7276], [13471083.2498, 1646365.7276], [13471093.2498, 1646375.7276], [13471103.2498, 1646385.7276], [13471113.2498, 1646395.7276], [13471123.2498, 1646405.7276], [13471133.2498, 1646415.7276], [13471143.2498, 1646425.7276], [13471153.2498, 1646435.7276], [13471163.2498, 1646435.7276], [13471173.2498, 1646445.7276], [13471183.2498, 1646455.7276], [13471193.2498, 1646465.7276], [13471203.2498, 1646475.7276], [13471213.2498, 1646485.7276], [13471223.2498, 1646495.7276], [13471233.2498, 1646505.7276], [13471243.2498, 1646515.7276], [13471253.2498, 1646525.7276], [13471263.2498, 1646535.7276], [13471273.2498, 1646545.7276], [13471283.2498, 1646555.7276], [13471293.2498, 1646565.7276], [13471303.2498, 1646575.7276], [13471313.2498, 1646585.7276], [13471323.2498, 1646595.7276], [13471333.2498, 1646605.7276], [13471343.2498, 1646615.7276], [13471353.2498, 1646625.7276], [13471363.2498, 1646635.7276], [13471373.2498, 1646635.7276], [13471383.2498, 1646645.7276], [13471393.2498, 1646655.7276], [13471403.2498, 1646665.7276], [13471413.2498, 1646675.7276], [13471423.2498, 1646685.7276], [13471433.2498, 1646695.7276], [13471443.2498, 1646705.7276], [13471453.2498, 1646705.7276], [13471463.2498, 1646715.7276], [13471473.2498, 1646725.7276], [13471483.2498, 1646735.7276], [13471493.2498, 1646745.7276], [13471503.2498, 1646755.7276], [13471513.2498, 1646765.7276], [13471523.2498, 1646765.7276], [13471533.2498, 1646775.7276], [13471543.2498, 1646775.7276], [13471553.2498, 1646785.7276], [13471563.2498, 1646795.7276], [13471573.2498, 1646795.7276], [13471583.2498, 1646805.7276], [13471593.2498, 1646815.7276], [13471603.2498, 1646815.7276], [13471613.2498, 1646825.7276], [13471623.2498, 1646835.7276], [13471633.2498, 1646835.7276], [13471643.2498, 1646845.7276], [13471653.2498, 1646855.7276], [13471663.2498, 1646855.7276], [13471673.2498, 1646865.7276], [13471683.2498, 1646875.7276], [13471693.2498, 1646875.7276], [13471703.2498, 1646885.7276], [13471713.2498, 1646885.7276], [13471723.2498, 1646895.7276], [13471733.2498, 1646905.7276], [13471743.2498, 1646915.7276], [13471753.2498, 1646915.7276], [13471763.2498, 1646925.7276], [13471773.2498, 1646925.7276], [13471783.2498, 1646935.7276], [13471793.2498, 1646945.7276], [13471803.2498, 1646945.7276], [13471813.2498, 1646955.7276], [13471823.2498, 1646955.7276], [13471833.2498, 1646965.7276], [13471843.2498, 1646975.7276], [13471853.2498, 1646975.7276], [13471863.2498, 1646985.7276], [13471873.2498, 1646995.7276], [13471883.2498, 1646995.7276], [13471893.2498, 1647005.7276], [13471903.2498, 1647015.7276], [13471913.2498, 1647015.7276], [13471923.2498, 1647025.7276], [13471933.2498, 1647035.7276], [13471943.2498, 1647035.7276], [13471953.2498, 1647045.7276], [13471963.2498, 1647055.7276], [13471973.2498, 1647055.7276], [13471983.2498, 1647065.7276], [13471993.2498, 1647065.7276], [13472003.2498, 1647075.7276], [13472013.2498, 1647085.7276], [13472023.2498, 1647085.7276], [13472033.2498, 1647095.7276], [13472043.2498, 1647105.7276], [13472053.2498, 1647105.7276], [13472063.2498, 1647115.7276], [13472073.2498, 1647125.7276], [13472083.2498, 1647125.7276], [13472093.2498, 1647135.7276], [13472103.2498, 1647145.7276], [13472113.2498, 1647145.7276], [13472123.2498, 1647155.7276], [13472133.2498, 1647155.7276], [13472143.2498, 1647165.7276], [13472153.2498, 1647175.7276], [13472163.2498, 1647175.7276], [13472173.2498, 1647185.7276], [13472183.2498, 1647195.7276], [13472193.2498, 1647195.7276], [13472203.2498, 1647205.7276], [13472213.2498, 1647205.7276], [13472223.2498, 1647215.7276], [13472233.2498, 1647225.7276], [13472243.2498, 1647225.7276], [13472253.2498, 1647235.7276], [13472263.2498, 1647245.7276], [13472273.2498, 1647245.7276], [13472283.2498, 1647255.7276], [13472293.2498, 1647255.7276], [13472303.2498, 1647265.7276], [13472313.2498, 1647275.7276], [13472323.2498, 1647275.7276], [13472333.2498, 1647285.7276], [13472343.2498, 1647285.7276], [13472353.2498, 1647295.7276], [13472363.2498, 1647305.7276], [13472373.2498, 1647305.7276], [13472383.2498, 1647315.7276], [13472393.2498, 1647325.7276], [13472403.2498, 1647325.7276], [13472413.2498, 1647335.7276], [13472423.2498, 1647345.7276], [13472433.2498, 1647345.7276], [13472443.2498, 1647355.7276], [13472453.2498, 1647355.7276], [13472463.2498, 1647365.7276], [13472473.2498, 1647375.7276], [13472483.2498, 1647375.7276], [13472493.2498, 1647385.7276], [13472503.2498, 1647395.7276], [13472513.2498, 1647405.7276], [13472513.2498, 1647415.7276], [13472523.2498, 1647425.7276], [13472533.2498, 1647435.7276], [13472533.2498, 1647445.7276], [13472543.2498, 1647455.7276], [13472543.2498, 1647465.7276], [13472543.2498, 1647475.7276], [13472543.2498, 1647485.7276], [13472543.2498, 1647495.7276], [13472543.2498, 1647505.7276], [13472553.2498, 1647515.7276], [13472553.2498, 1647525.7276], [13472553.2498, 1647535.7276], [13472553.2498, 1647545.7276], [13472553.2498, 1647555.7276], [13472563.2498, 1647565.7276], [13472563.2498, 1647575.7276], [13472563.2498, 1647585.7276], [13472573.2498, 1647595.7276], [13472573.2498, 1647605.7276], [13472573.2498, 1647615.7276], [13472573.2498, 1647625.7276], [13472573.2498, 1647635.7276], [13472583.2498, 1647645.7276], [13472583.2498, 1647655.7276], [13472583.2498, 1647665.7276], [13472583.2498, 1647675.7276], [13472583.2498, 1647685.7276], [13472593.2498, 1647695.7276], [13472593.2498, 1647705.7276], [13472593.2498, 1647715.7276], [13472593.2498, 1647725.7276], [13472593.2498, 1647735.7276], [13472603.2498, 1647745.7276], [13472603.2498, 1647755.7276], [13472603.2498, 1647765.7276], [13472613.2498, 1647775.7276], [13472613.2498, 1647785.7276], [13472613.2498, 1647795.7276], [13472613.2498, 1647805.7276], [13472613.2498, 1647815.7276], [13472623.2498, 1647825.7276], [13472623.2498, 1647835.7276], [13472623.2498, 1647845.7276], [13472623.2498, 1647855.7276], [13472633.2498, 1647865.7276], [13472633.2498, 1647875.7276], [13472633.2498, 1647885.7276], [13472633.2498, 1647895.7276], [13472633.2498, 1647905.7276], [13472643.2498, 1647915.7276], [13472643.2498, 1647925.7276], [13472643.2498, 1647935.7276], [13472643.2498, 1647945.7276], [13472653.2498, 1647955.7276], [13472653.2498, 1647965.7276], [13472653.2498, 1647975.7276], [13472653.2498, 1647985.7276], [13472653.2498, 1647995.7276], [13472653.2498, 1648005.7276], [13472663.2498, 1648015.7276], [13472663.2498, 1648025.7276], [13472663.2498, 1648035.7276], [13472663.2498, 1648045.7276], [13472663.2498, 1648055.7276], [13472663.2498, 1648065.7276], [13472673.2498, 1648075.7276], [13472673.2498, 1648085.7276], [13472673.2498, 1648095.7276], [13472683.2498, 1648105.7276], [13472683.2498, 1648115.7276], [13472683.2498, 1648125.7276], [13472683.2498, 1648135.7276], [13472693.2498, 1648145.7276], [13472693.2498, 1648155.7276], [13472693.2498, 1648165.7276], [13472693.2498, 1648175.7276], [13472703.2498, 1648185.7276], [13472703.2498, 1648195.7276], [13472703.2498, 1648205.7276], [13472703.2498, 1648215.7276], [13472703.2498, 1648225.7276], [13472713.2498, 1648235.7276], [13472713.2498, 1648245.7276], [13472713.2498, 1648255.7276], [13472713.2498, 1648265.7276], [13472713.2498, 1648275.7276], [13472723.2498, 1648285.7276], [13472723.2498, 1648295.7276], [13472723.2498, 1648305.7276], [13472723.2498, 1648315.7276], [13472733.2498, 1648325.7276], [13472733.2498, 1648335.7276], [13472733.2498, 1648345.7276], [13472733.2498, 1648355.7276], [13472733.2498, 1648365.7276], [13472743.2498, 1648375.7276], [13472743.2498, 1648385.7276], [13472743.2498, 1648395.7276], [13472743.2498, 1648405.7276], [13472743.2498, 1648415.7276], [13472743.2498, 1648425.7276], [13472753.2498, 1648435.7276], [13472753.2498, 1648445.7276], [13472753.2498, 1648455.7276], [13472763.2498, 1648465.7276], [13472763.2498, 1648475.7276], [13472763.2498, 1648485.7276], [13472763.2498, 1648495.7276], [13472763.2498, 1648505.7276], [13472773.2498, 1648515.7276], [13472773.2498, 1648525.7276], [13472773.2498, 1648535.7276], [13472773.2498, 1648545.7276], [13472783.2498, 1648555.7276], [13472783.2498, 1648565.7276], [13472783.2498, 1648575.7276], [13472783.2498, 1648585.7276], [13472783.2498, 1648595.7276], [13472793.2498, 1648605.7276], [13472793.2498, 1648615.7276], [13472793.2498, 1648625.7276], [13472803.2498, 1648635.7276], [13472803.2498, 1648645.7276], [13472803.2498, 1648655.7276], [13472803.2498, 1648665.7276], [13472803.2498, 1648675.7276], [13472803.2498, 1648685.7276], [13472813.2498, 1648695.7276], [13472813.2498, 1648705.7276], [13472813.2498, 1648715.7276], [13472813.2498, 1648725.7276], [13472823.2498, 1648735.7276], [13472823.2498, 1648745.7276], [13472823.2498, 1648755.7276], [13472823.2498, 1648765.7276], [13472833.2498, 1648775.7276], [13472833.2498, 1648785.7276], [13472833.2498, 1648795.7276], [13472833.2498, 1648805.7276], [13472833.2498, 1648815.7276], [13472843.2498, 1648825.7276], [13472843.2498, 1648835.7276], [13472843.2498, 1648845.7276], [13472843.2498, 1648855.7276], [13472843.2498, 1648865.7276], [13472853.2498, 1648875.7276], [13472853.2498, 1648885.7276], [13472853.2498, 1648895.7276], [13472853.2498, 1648905.7276], [13472863.2498, 1648915.7276], [13472863.2498, 1648925.7276], [13472863.2498, 1648935.7276], [13472863.2498, 1648945.7276], [13472863.2498, 1648955.7276], [13472873.2498, 1648965.7276], [13472873.2498, 1648975.7276], [13472873.2498, 1648985.7276], [13472873.2498, 1648995.7276], [13472883.2498, 1649005.7276], [13472883.2498, 1649015.7276], [13472883.2498, 1649025.7276], [13472883.2498, 1649035.7276], [13472883.2498, 1649045.7276], [13472893.2498, 1649055.7276], [13472893.2498, 1649065.7276], [13472893.2498, 1649075.7276], [13472893.2498, 1649085.7276], [13472903.2498, 1649095.7276], [13472903.2498, 1649105.7276], [13472903.2498, 1649115.7276], [13472903.2498, 1649125.7276], [13472903.2498, 1649135.7276], [13472913.2498, 1649145.7276], [13472913.2498, 1649155.7276], [13472913.2498, 1649165.7276], [13472913.2498, 1649175.7276], [13472923.2498, 1649185.7276], [13472923.2498, 1649195.7276], [13472923.2498, 1649205.7276], [13472923.2498, 1649215.7276], [13472923.2498, 1649225.7276], [13472933.2498, 1649235.7276], [13472933.2498, 1649245.7276], [13472933.2498, 1649255.7276], [13472933.2498, 1649265.7276], [13472943.2498, 1649275.7276], [13472943.2498, 1649285.7276], [13472943.2498, 1649295.7276], [13472943.2498, 1649305.7276], [13472943.2498, 1649315.7276], [13472953.2498, 1649325.7276], [13472953.2498, 1649335.7276], [13472953.2498, 1649345.7276], [13472963.2498, 1649355.7276], [13472973.2498, 1649365.7276], [13472973.2498, 1649375.7276], [13472973.2498, 1649385.7276], [13472973.2498, 1649395.7276], [13472983.2498, 1649405.7276], [13472983.2498, 1649415.7276], [13472983.2498, 1649425.7276], [13472983.2498, 1649435.7276], [13472983.2498, 1649445.7276], [13472993.2498, 1649455.7276], [13472993.2498, 1649465.7276], [13473003.2498, 1649475.7276], [13473013.2498, 1649485.7276], [13473023.2498, 1649495.7276], [13473033.2498, 1649505.7276], [13473043.2498, 1649515.7276], [13473053.2498, 1649515.7276], [13473063.2498, 1649515.7276], [13473073.2498, 1649515.7276], [13473083.2498, 1649515.7276], [13473093.2498, 1649515.7276], [13473103.2498, 1649515.7276], [13473113.2498, 1649515.7276], [13473123.2498, 1649515.7276]]}, "properties": {"algorithm": "A*"}}, {"type": "Feature", "geometry": {"type": "Point", "coordinates": [13469893.2498, 1645235.7276]}, "properties": {"role": "start"}}, {"type": "Feature", "geometry": {"type": "Point", "coordinates": [13473123.2498, 1649515.7276]}, "properties": {"role": "goal"}}]}