{"type": "FeatureCollection", "features": [{"type": "Feature", "geometry": {"type": "LineString", "coordinates": [[121.0590524, 14.7352905], [121.0612074, 14.7353341], [121.0612088, 14.7348269], [121.0612088, 14.7346996], [121.0612644, 14.7316228], [121.0612591, 14.7307623], [121.061256, 14.7302775], [121.0612534, 14.7298501], [121.0612523, 14.7296727], [121.0612469, 14.7288093], [121.0612451, 14.7276884], [121.0612444, 14.7275832], [121.0612359, 14.7253427], [121.0612297, 14.7246209], [121.0612325, 14.724543], [121.0612305, 14.7230691], [121.0612301, 14.7224861], [121.0612274, 14.7201353], [121.0612233, 14.7165082], [121.0612212, 14.7135994], [121.0612171, 14.7111598], [121.061212, 14.7107531], [121.0611414, 14.7106079], [121.061238, 14.7104833], [121.0627727, 14.7086312], [121.0646692, 14.7067701], [121.0672017, 14.7065666], [121.069345, 14.7065655], [121.0694289, 14.7065657], [121.070337, 14.7065562], [121.070453, 14.7065448], [121.071603, 14.7061874], [121.0721858, 14.7059922], [121.0736743, 14.7054931], [121.0755004, 14.7051721], [121.0782785, 14.7051678], [121.0812337, 14.7051435], [121.0818245, 14.7050947], [121.0818816, 14.7050861], [121.0819366, 14.7050778], [121.0821212, 14.7050312], [121.0866926, 14.7013873], [121.0872363, 14.6999736], [121.0873781, 14.6994575], [121.0874404, 14.6991767], [121.0875252, 14.6968016], [121.0875186, 14.6958398], [121.0875097, 14.6945266], [121.0874759, 14.6926703], [121.0874415, 14.6912172], [121.0873106, 14.6877293], [121.0872103, 14.6872511], [121.087121, 14.686825], [121.0870945, 14.6867179], [121.08681, 14.6859114], [121.0867939, 14.6858718], [121.0864769, 14.685065], [121.0861534, 14.684294], [121.0860169, 14.6839883], [121.0856982, 14.6832683], [121.0854659, 14.682755], [121.0843622, 14.6802144], [121.0832922, 14.677761], [121.0829924, 14.67716], [121.0827766, 14.6767546], [121.0821757, 14.6757277], [121.0817044, 14.6750777], [121.0789913, 14.6717115], [121.0782105, 14.6709268], [121.0765867, 14.6693973], [121.075015, 14.6681802], [121.0740862, 14.6675541], [121.0724907, 14.6664823], [121.0719416, 14.6661136], [121.0709662, 14.6654589], [121.07063, 14.665208], [121.0702681, 14.6649477], [121.0688648, 14.663953], [121.0676619, 14.6631782]]}, "properties": {"algorithm": "Dijkstra"}}, {"type": "Feature", "geometry": {"type": "Point", "coordinates": [121.0590524, 14.7352905]}, "properties": {"role": "start"}}, {"type": "Feature", "geometry": {"type": "Point", "coordinates": [121.0676619, 14.6631782]}, "properties": {"role": "goal"}}]}