{
"type": "FeatureCollection",
"name": "jps_path",
"crs": { "type": "name", "properties": { "name": "urn:ogc:def:crs:OGC:1.3:CRS84" } },
"features": [
{ "type": "Feature", "properties": { "role": "path" }, "geometry": { "type": "LineString", "coordinates": [ [ 121.046935750214672, 14.649992256224298 ], [ 121.046666255629447, 14.649731523059033 ], [ 121.046576424101019, 14.649731523059033 ], [ 121.046486592572606, 14.649644611935024 ], [ 121.046396761044193, 14.649644611935024 ], [ 121.04621709798738, 14.64947078958361 ], [ 121.046127266458967, 14.64947078958361 ], [ 121.046037434930554, 14.649383878356215 ], [ 121.045947603402141, 14.649383878356215 ], [ 121.045767940345328, 14.649210055798033 ], [ 121.045678108816915, 14.649210055798033 ], [ 121.045498445760074, 14.649036233102004 ], [ 121.045408614231661, 14.649036233102004 ], [ 121.045228951174835, 14.648862410268135 ], [ 121.045139119646436, 14.648862410268135 ], [ 121.044959456589609, 14.648688587296423 ], [ 121.044869625061196, 14.648688587296423 ], [ 121.044779793532783, 14.648601675758874 ], [ 121.044689962004384, 14.648601675758874 ], [ 121.044510298947557, 14.648427852580401 ], [ 121.044420467419144, 14.648427852580401 ], [ 121.044240804362303, 14.648254029264082 ], [ 121.04415097283389, 14.648254029264082 ], [ 121.043971309777078, 14.648080205809936 ], [ 121.043881478248665, 14.648080205809936 ], [ 121.043701815191838, 14.647906382217952 ], [ 121.043611983663439, 14.647906382217952 ], [ 121.043342489078199, 14.647645646571535 ], [ 121.043162826021359, 14.647645646571535 ], [ 121.042893331436133, 14.647384910614994 ], [ 121.04280349990772, 14.647384910614994 ], [ 121.042623836850893, 14.647211086471682 ], [ 121.042534005322494, 14.647211086471682 ], [ 121.042264510737255, 14.646950349998287 ], [ 121.042174679208856, 14.646950349998287 ], [ 121.041995016152001, 14.646776525510406 ], [ 121.041905184623602, 14.646776525510406 ], [ 121.041725521566775, 14.646602700884698 ], [ 121.041635690038362, 14.646602700884698 ], [ 121.041545858509949, 14.646515788520166 ], [ 121.040737374754244, 14.646515788520166 ], [ 121.039120407242834, 14.644951360066791 ], [ 121.03903057571442, 14.644951360066791 ], [ 121.038850912657608, 14.64477753399402 ], [ 121.038761081129195, 14.64477753399402 ], [ 121.038581418072354, 14.644603707783443 ], [ 121.038491586543941, 14.644603707783443 ], [ 121.037593271259837, 14.644603707783443 ], [ 121.03588647222, 14.642952351910086 ], [ 121.035796640691586, 14.642952351910086 ], [ 121.035616977634774, 14.642778524252616 ], [ 121.035527146106361, 14.642778524252616 ], [ 121.035437314577948, 14.642691610372214 ], [ 121.035257651521107, 14.642691610372214 ], [ 121.035167819992694, 14.642604696457365 ], [ 121.03507798846428, 14.642604696457365 ], [ 121.034898325407468, 14.64243086852432 ], [ 121.034808493879055, 14.64243086852432 ], [ 121.034718662350642, 14.642343954506128 ], [ 121.034628830822243, 14.642343954506128 ], [ 121.034538999293829, 14.64225704045349 ], [ 121.034449167765416, 14.64225704045349 ], [ 121.034179673180191, 14.641996298088891 ], [ 121.034089841651749, 14.641996298088891 ], [ 121.034000010123336, 14.641909383898469 ], [ 121.033910178594937, 14.641909383898469 ], [ 121.03373051553811, 14.641735555414286 ], [ 121.033640684009697, 14.641735555414286 ], [ 121.033461020952885, 14.64156172679232 ], [ 121.033371189424471, 14.64156172679232 ], [ 121.033281357896058, 14.641474812429671 ], [ 121.033191526367659, 14.641474812429671 ], [ 121.033011863310804, 14.641300983601035 ], [ 121.032922031782391, 14.641300983601035 ], [ 121.032742368725579, 14.641127154634621 ], [ 121.032652537197166, 14.641127154634621 ], [ 121.032472874140353, 14.640953325530434 ], [ 121.03238304261194, 14.640953325530434 ], [ 121.032203379555114, 14.640779496288474 ], [ 121.032113548026715, 14.640779496288474 ], [ 121.032023716498301, 14.640692581615824 ], [ 121.031933884969888, 14.640692581615824 ], [ 121.031754221913047, 14.640518752167203 ], [ 121.031664390384634, 14.640518752167203 ], [ 121.031484727327808, 14.640344922580811 ], [ 121.031394895799409, 14.640344922580811 ], [ 121.031215232742582, 14.640171092856651 ], [ 121.031125401214169, 14.640171092856651 ], [ 121.03103556968577, 14.640084177942907 ], [ 121.030945738157357, 14.640084177942907 ], [ 121.030766075100502, 14.639910348012094 ], [ 121.030676243572103, 14.639910348012094 ], [ 121.030496580515276, 14.639736517943513 ], [ 121.030406748986863, 14.639736517943513 ], [ 121.030227085930051, 14.639562687737172 ], [ 121.030137254401637, 14.639562687737172 ], [ 121.030047422873224, 14.639475772582339 ], [ 121.029957591344825, 14.639475772582339 ], [ 121.029777928287999, 14.639301942169354 ], [ 121.029688096759585, 14.639301942169354 ], [ 121.029508433702745, 14.639128111618607 ], [ 121.029418602174331, 14.639128111618607 ], [ 121.029238939117519, 14.638954280930104 ], [ 121.029149107589106, 14.638954280930104 ], [ 121.029059276060693, 14.638867365534194 ], [ 121.028969444532279, 14.638867365534194 ], [ 121.028789781475467, 14.638693534639053 ], [ 121.028699949947054, 14.638693534639053 ], [ 121.028520286890227, 14.638519703606153 ], [ 121.0284304553618, 14.638519703606153 ], [ 121.028340623833387, 14.638432788038051 ], [ 121.028250792304974, 14.638432788038051 ], [ 121.028071129248161, 14.638258956798531 ], [ 121.027981297719748, 14.638258956798531 ], [ 121.027801634662936, 14.638085125421249 ], [ 121.027711803134522, 14.638085125421249 ], [ 121.027532140077696, 14.637911293906221 ], [ 121.027442308549283, 14.637911293906221 ], [ 121.027262645492442, 14.637737462253451 ], [ 121.027172813964029, 14.637737462253451 ], [ 121.02708298243563, 14.637650546375406 ], [ 121.026993150907217, 14.637650546375406 ], [ 121.02681348785039, 14.63747671451601 ], [ 121.026094835623084, 14.63747671451601 ], [ 121.024837194225327, 14.636259887643478 ], [ 121.024747362696914, 14.636259887643478 ], [ 121.024567699640102, 14.636086054682169 ], [ 121.024477868111688, 14.636086054682169 ], [ 121.024298205054862, 14.635912221583125 ], [ 121.024208373526449, 14.635912221583125 ], [ 121.024028710469636, 14.635738388346351 ], [ 121.023938878941195, 14.635738388346351 ], [ 121.023849047412796, 14.635651471676313 ], [ 121.023759215884382, 14.635651471676313 ], [ 121.023579552827556, 14.635477638232944 ], [ 121.023489721299157, 14.635477638232944 ], [ 121.02331005824233, 14.635303804651848 ], [ 121.023220226713917, 14.635303804651848 ], [ 121.023040563657105, 14.635129970933027 ], [ 121.022950732128692, 14.635129970933027 ], [ 121.022860900600278, 14.635043054021967 ], [ 121.022771069071851, 14.635043054021967 ], [ 121.022591406015025, 14.63486922009656 ], [ 121.022501574486611, 14.63486922009656 ], [ 121.022321911429799, 14.63469538603343 ], [ 121.022232079901386, 14.63469538603343 ], [ 121.022052416844559, 14.634521551832577 ], [ 121.02196258531616, 14.634521551832577 ], [ 121.021872753787747, 14.634434634680508 ], [ 121.021782922259334, 14.634434634680508 ], [ 121.021603259202493, 14.634260800273077 ], [ 121.02151342767408, 14.634260800273077 ], [ 121.021333764617268, 14.63408696572793 ], [ 121.021243933088854, 14.63408696572793 ], [ 121.021064270032028, 14.63391313104507 ], [ 121.020974438503615, 14.63391313104507 ], [ 121.020884606975216, 14.633826213651989 ], [ 121.020794775446802, 14.633826213651989 ], [ 121.020525280861548, 14.633565461266201 ], [ 121.020435449333135, 14.633565461266201 ], [ 121.020345617804722, 14.633478543735418 ], [ 121.020255786276323, 14.633478543735418 ], [ 121.020076123219496, 14.633304708570558 ], [ 121.019986291691083, 14.633304708570558 ], [ 121.019806628634271, 14.633130873267994 ], [ 121.019716797105858, 14.633130873267994 ], [ 121.019537134049031, 14.632957037827724 ], [ 121.019447302520632, 14.632957037827724 ], [ 121.01935747099219, 14.632870120055946 ], [ 121.019267639463777, 14.632870120055946 ], [ 121.019177807935378, 14.632783202249744 ], [ 121.018728650293326, 14.632783202249744 ], [ 121.017830335009194, 14.631914022294316 ], [ 121.01774050348078, 14.631914022294316 ], [ 121.017560840423968, 14.631740185890136 ], [ 121.017471008895555, 14.631740185890136 ], [ 121.017291345838743, 14.631566349348258 ], [ 121.017201514310329, 14.631566349348258 ], [ 121.016932019725076, 14.631305594277263 ], [ 121.016842188196662, 14.631305594277263 ], [ 121.016572693611437, 14.631044838896468 ], [ 121.016482862083024, 14.631044838896468 ], [ 121.016123535969385, 14.63069716457349 ], [ 121.016033704440972, 14.63069716457349 ], [ 121.015943872912544, 14.630610245906688 ], [ 121.015584546798891, 14.63026257089528 ], [ 121.015494715270492, 14.63026257089528 ], [ 121.013787916230669, 14.628611107070375 ], [ 121.013248927060189, 14.628611107070375 ], [ 121.013069264003363, 14.628437268050233 ], [ 121.013069264003363, 14.628263428892422 ], [ 121.011362464963526, 14.62661195002738 ], [ 121.008218361469133, 14.623569719598866 ], [ 121.007948866883879, 14.623569719598866 ], [ 121.003367458934861, 14.619136679809225 ], [ 121.003277627406462, 14.619136679809225 ], [ 121.00201998600869, 14.617919751274185 ], [ 121.001840322951878, 14.617919751274185 ] ] } },
{ "type": "Feature", "properties": { "role": "start" }, "geometry": { "type": "Point", "coordinates": [ 121.046935750214672, 14.649992256224298 ] } },
{ "type": "Feature", "properties": { "role": "goal" }, "geometry": { "type": "Point", "coordinates": [ 121.001840322951878, 14.617919751274185 ] } }
]
}
